Model Marker Errors from IK
version=1
nRows=203
nColumns=4
inDegrees=no
endheader
time	total_squared_error	marker_error_RMS	marker_error_max
1749651033.78399992	      0.07784943	      0.07204139	      0.11893954
1749651034.05100012	      0.07308021	      0.06979981	      0.11575760
1749651034.08400011	      0.07393962	      0.07020903	      0.11724436
1749651034.11800003	      0.07371799	      0.07010373	      0.11882289
1749651034.15199995	      0.07368304	      0.07008711	      0.11808193
1749651034.18499994	      0.07345825	      0.06998011	      0.11813297
1749651034.21900010	      0.07434030	      0.07039901	      0.11869896
1749651034.25200009	      0.07535872	      0.07087958	      0.11853413
1749651034.28600001	      0.07596905	      0.07116603	      0.11815674
1749651034.31900001	      0.07598047	      0.07117138	      0.11680483
1749651034.35200000	      0.07586948	      0.07111938	      0.11729435
1749651034.38599992	      0.07627425	      0.07130884	      0.11699988
1749651034.41899991	      0.07568156	      0.07103124	      0.11720395
1749651034.45300007	      0.07468201	      0.07056062	      0.11673667
1749651034.48600006	      0.07438328	      0.07041936	      0.11689376
1749651034.51999998	      0.07408796	      0.07027942	      0.11672106
1749651034.55299997	      0.07449412	      0.07047180	      0.11618082
1749651034.58599997	      0.07416565	      0.07031626	      0.11753811
1749651034.61999989	      0.07573441	      0.07105604	      0.11915600
1749651034.65400004	      0.07614827	      0.07124992	      0.11913046
1749651034.68700004	      0.07635849	      0.07134820	      0.11993864
1749651034.72000003	      0.07498583	      0.07070400	      0.11972702
1749651034.75399995	      0.07537759	      0.07088845	      0.11939401
1749651034.78699994	      0.07563780	      0.07101070	      0.12001663
1749651034.82100010	      0.05700071	      0.06164453	      0.12300408
1749651034.85400009	      0.07567169	      0.07102661	      0.12026354
1749651034.88800001	      0.07515472	      0.07078357	      0.11940102
1749651034.92100000	      0.07528668	      0.07084569	      0.11851170
1749651034.95400000	      0.07592294	      0.07114442	      0.11967332
1749651034.98799992	      0.07498248	      0.07070242	      0.12065037
1749651035.02099991	      0.07537095	      0.07088533	      0.11999981
1749651035.05500007	      0.04223235	      0.05306119	      0.13188009
1749651035.08800006	      0.07530335	      0.07085354	      0.11927305
1749651035.12199998	      0.04111616	      0.05235530	      0.13174260
1749651035.15499997	      0.04263808	      0.05331546	      0.13230963
1749651035.18799996	      0.04379623	      0.05403470	      0.13316850
1749651035.22199988	      0.04452421	      0.05448193	      0.13353632
1749651035.25500011	      0.04363130	      0.05393286	      0.13301529
1749651035.28900003	      0.04159275	      0.05265786	      0.13072838
1749651035.32200003	      0.03798612	      0.05032303	      0.11963018
1749651035.35599995	      0.03842570	      0.05061337	      0.12319329
1749651035.38899994	      0.03947493	      0.05129973	      0.12654421
1749651035.42300010	      0.03943733	      0.05127529	      0.12848593
1749651035.45600009	      0.03977377	      0.05149354	      0.13002678
1749651035.49000001	      0.03999960	      0.05163952	      0.13136335
1749651035.52300000	      0.03949793	      0.05131467	      0.13211980
1749651035.55699992	      0.04046883	      0.05194152	      0.13204720
1749651035.58999991	      0.03990161	      0.05157623	      0.12556547
1749651035.62299991	      0.04084466	      0.05218215	      0.12751599
1749651035.65700006	      0.04159045	      0.05265640	      0.12878500
1749651035.69000006	      0.07374028	      0.07011433	      0.11969827
1749651035.75699997	      0.04276360	      0.05339388	      0.13131888
1749651035.85700011	      0.07294570	      0.06973555	      0.11937947
1749651035.89100003	      0.04192100	      0.05286524	      0.13236067
1749651035.92499995	      0.07443730	      0.07044492	      0.11881127
1749651035.95799994	      0.07493890	      0.07068187	      0.11842168
1749651035.99099994	      0.07621158	      0.07127953	      0.11927066
1749651036.02500010	      0.04117196	      0.05239081	      0.13228334
1749651036.05800009	      0.07313816	      0.06982748	      0.12098952
1749651036.09200001	      0.07447372	      0.07046215	      0.12115304
1749651036.12500000	      0.07433983	      0.07039878	      0.11989404
1749651036.15899992	      0.07494097	      0.07068285	      0.11967328
1749651036.19199991	      0.07470279	      0.07057043	      0.11864573
1749651036.22499990	      0.07481150	      0.07062176	      0.11874007
1749651036.25900006	      0.07580910	      0.07109107	      0.11872662
1749651036.29200006	      0.07608524	      0.07122043	      0.11873298
1749651036.32599998	      0.07615499	      0.07125307	      0.11904565
1749651036.35899997	      0.07690464	      0.07160291	      0.11969640
1749651036.39299989	      0.04370602	      0.05397902	      0.13231896
1749651036.42600012	      0.07541650	      0.07090674	      0.12015002
1749651036.46000004	      0.07580833	      0.07109071	      0.12145341
1749651036.49300003	      0.07749008	      0.07187493	      0.12243856
1749651036.52699995	      0.07897245	      0.07255915	      0.12300828
1749651036.55999994	      0.04602687	      0.05539366	      0.13422026
1749651036.59400010	      0.07948749	      0.07279537	      0.12231421
1749651036.62700009	      0.07847475	      0.07233015	      0.12038187
1749651036.66000009	      0.04480598	      0.05465405	      0.13202235
1749651036.69400001	      0.04264303	      0.05331856	      0.13129945
1749651036.72700000	      0.04205179	      0.05294764	      0.13038838
1749651036.76099992	      0.04149646	      0.05259687	      0.13042843
1749651036.79399991	      0.04152220	      0.05261318	      0.13085021
1749651036.82800007	      0.04130437	      0.05247499	      0.13130655
1749651036.86100006	      0.04127077	      0.05245365	      0.13144405
1749651036.89499998	      0.03982465	      0.05152647	      0.13199420
1749651036.92799997	      0.03992372	      0.05159052	      0.13163051
1749651036.96099997	      0.04031873	      0.05184511	      0.13149266
1749651037.02900004	      0.04038838	      0.05188987	      0.13011816
1749651037.06200004	      0.04171407	      0.05273460	      0.13046717
1749651037.09500003	      0.04130452	      0.05247509	      0.13072068
1749651037.12899995	      0.04066990	      0.05207040	      0.13115998
1749651037.16199994	      0.03714976	      0.04976596	      0.11904396
1749651037.19600010	      0.03693656	      0.04962295	      0.12443222
1749651037.22900009	      0.03903247	      0.05101142	      0.12772010
1749651037.26300001	      0.07343220	      0.06996771	      0.12110638
1749651037.29600000	      0.04253466	      0.05325076	      0.13213198
1749651037.32900000	      0.04414143	      0.05424723	      0.13374494
1749651037.36299992	      0.04489475	      0.05470816	      0.13393236
1749651037.39599991	      0.04542273	      0.05502892	      0.13431661
1749651037.43000007	      0.04430035	      0.05434479	      0.13319514
1749651037.46300006	      0.04412027	      0.05423423	      0.13286002
1749651037.49699998	      0.04317672	      0.05365117	      0.13182006
1749651037.52999997	      0.04305091	      0.05357295	      0.13304760
1749651037.56299996	      0.04119685	      0.05240665	      0.13255490
1749651037.59699988	      0.03993865	      0.05160016	      0.13125909
1749651037.63000011	      0.03996273	      0.05161572	      0.13246584
1749651037.66400003	      0.03983686	      0.05153437	      0.13181949
1749651037.69700003	      0.03920860	      0.05112638	      0.13171323
1749651037.73099995	      0.03904365	      0.05101872	      0.13167435
1749651037.76399994	      0.04002902	      0.05165851	      0.13112550
1749651037.79800010	      0.03824667	      0.05049533	      0.13052837
1749651037.83100009	      0.03949230	      0.05131101	      0.13083155
1749651037.86500001	      0.04008978	      0.05169770	      0.13121948
1749651037.89800000	      0.03958434	      0.05137077	      0.13087679
1749651037.93099999	      0.04093367	      0.05223899	      0.13076090
1749651037.96499991	      0.07450610	      0.07047747	      0.11939237
1749651037.99799991	      0.04298258	      0.05353041	      0.13119347
1749651038.03200006	      0.04281692	      0.05342716	      0.13073954
1749651038.06500006	      0.07559849	      0.07099225	      0.11799605
1749651038.09899998	      0.07724511	      0.07176123	      0.11875194
1749651038.16599989	      0.04230455	      0.05310653	      0.13198958
1749651038.19899988	      0.04284307	      0.05344347	      0.13059338
1749651038.23200011	      0.07595943	      0.07116152	      0.11859573
1749651038.26600003	      0.04359817	      0.05391238	      0.13068724
1749651038.29900002	      0.07682682	      0.07156667	      0.12029180
1749651038.33299994	      0.07784264	      0.07203825	      0.12136898
1749651038.36599994	      0.07823660	      0.07222031	      0.12156881
1749651038.40000010	      0.07767012	      0.07195838	      0.12049193
1749651038.43300009	      0.04378086	      0.05402522	      0.13387994
1749651038.46700001	      0.04195227	      0.05288495	      0.13499296
1749651038.50000000	      0.04228190	      0.05309231	      0.13289084
1749651038.53399992	      0.04247721	      0.05321479	      0.13164679
1749651038.56699991	      0.07549923	      0.07094563	      0.12000450
1749651038.59999990	      0.07707318	      0.07168132	      0.11914278
1749651038.63400006	      0.07869292	      0.07243062	      0.11862867
1749651038.66700006	      0.07897975	      0.07256250	      0.11915588
1749651038.70099998	      0.04683576	      0.05587830	      0.13542688
1749651038.73399997	      0.07806835	      0.07214261	      0.11853001
1749651038.76799989	      0.07737740	      0.07182265	      0.11979883
1749651038.80100012	      0.07766070	      0.07195401	      0.12031975
1749651038.83500004	      0.07808820	      0.07215178	      0.11999554
1749651038.86800003	      0.07788181	      0.07205637	      0.11981347
1749651038.90199995	      0.07879082	      0.07247566	      0.12077066
1749651038.93499994	      0.07910441	      0.07261975	      0.12064817
1749651038.96900010	      0.08010215	      0.07307628	      0.12034209
1749651039.00200009	      0.07964788	      0.07286878	      0.12061606
1749651039.03600001	      0.08129268	      0.07361734	      0.12053764
1749651039.06900001	      0.08017994	      0.07311176	      0.11921813
1749651039.10200000	      0.07885211	      0.07250384	      0.11932812
1749651039.13599992	      0.07735374	      0.07181167	      0.11991463
1749651039.16899991	      0.07677657	      0.07154326	      0.11986059
1749651039.20300007	      0.04441955	      0.05441786	      0.13243744
1749651039.23600006	      0.07546047	      0.07092741	      0.11998740
1749651039.26999998	      0.07714755	      0.07171590	      0.11889414
1749651039.30299997	      0.07859010	      0.07238329	      0.11871256
1749651039.33699989	      0.08030931	      0.07317072	      0.11961397
1749651039.36999989	      0.08207444	      0.07397046	      0.12036716
1749651039.40300012	      0.08319271	      0.07447268	      0.12087551
1749651039.43700004	      0.08285803	      0.07432273	      0.12288555
1749651039.47000003	      0.08146557	      0.07369558	      0.12412023
1749651039.50399995	      0.07929273	      0.07270614	      0.12309687
1749651039.53699994	      0.07619903	      0.07127366	      0.12165915
1749651039.57100010	      0.07381167	      0.07014826	      0.12072313
1749651039.60400009	      0.09884505	      0.08117678	      0.13344187
1749651039.63700008	      0.09940433	      0.08140611	      0.13417158
1749651039.67100000	      0.08233507	      0.07408782	      0.11769780
1749651039.70400000	      0.07909084	      0.07261351	      0.12635954
1749651039.73799992	      0.07759725	      0.07192461	      0.12788210
1749651039.77099991	      0.07202768	      0.06929535	      0.13240687
1749651039.80500007	      0.02764794	      0.04293246	      0.10050352
1749651039.83800006	      0.02267317	      0.03887859	      0.08669473
1749651039.87199998	      0.02045449	      0.03692739	      0.08484036
1749651039.90499997	      0.02852139	      0.04360534	      0.10906530
1749651039.93899989	      0.11560269	      0.08778864	      0.15954074
1749651039.97199988	      0.14990542	      0.09996847	      0.22346556
1749651040.00600004	      0.07966653	      0.07287731	      0.20810865
1749651040.03900003	      0.19852598	      0.11504375	      0.28644631
1749651040.07200003	      0.23406639	      0.12491768	      0.31253153
1749651040.10599995	      0.25030948	      0.12917933	      0.32648809
1749651040.13899994	      0.37679970	      0.15849284	      0.37116274
1749651040.17300010	      0.27382764	      0.13511172	      0.32757338
1749651040.20600009	      0.13227585	      0.09390628	      0.27854292
1749651040.24000001	      0.12320004	      0.09062746	      0.26643217
1749651040.27300000	      0.11535821	      0.08769577	      0.26006044
1749651040.30699992	      0.10212705	      0.08251345	      0.24901097
1749651040.33999991	      0.10842611	      0.08502004	      0.25407838
1749651040.37299991	      0.09893254	      0.08121270	      0.24639204
1749651040.40700006	      0.09413886	      0.07922073	      0.23781391
1749651040.44000006	      0.02768487	      0.04296112	      0.06894059
1749651040.47399998	      0.04140905	      0.05254145	      0.12483417
1749651040.50699997	      0.05330430	      0.05961224	      0.15118114
1749651040.54099989	      0.18059065	      0.10972409	      0.26159538
1749651040.60700011	      0.20680869	      0.11741910	      0.27483260
1749651040.64100003	      0.22333102	      0.12201940	      0.28404876
1749651040.67400002	      0.28913747	      0.13883743	      0.33457940
1749651040.70799994	      0.13639439	      0.09535701	      0.17386185
1749651040.74099994	      0.10599065	      0.08405976	      0.13649830
1749651040.77500010	      0.09841405	      0.08099961	      0.14096717
1749651040.80800009	      0.09443661	      0.07934591	      0.14502094
1749651040.84200001	      0.08967509	      0.07731972	      0.14444024
1749651040.87500000	      0.06165482	      0.06411179	      0.13967092
1749651040.90899992	      0.08321911	      0.07448450	      0.14126700
1749651040.94199991	      0.08374343	      0.07471878	      0.14013767
1749651040.97600007	      0.08275320	      0.07427570	      0.13863148
