PathFileType	4	(X/Y/Z)	stereocamera_static.trc
DataRate	CameraRate	NumFrames	NumMarkers	Units	OrigDataRate	OrigDataStartFrame	OrigNumFrames
28.086763070077865	28.086763070077865	203	15	mm	28.086763070077865	1	203
Frame#	Time	JOINT_NECK			JOINT_RIGHT_CLAVICLE			JOINT_LEFT_CLAVICLE			JOINT_RIGHT_SHOULDER			JOINT_LEFT_SHOULDER			JOINT_RIGHT_ELBOW			JOINT_LEFT_ELBOW			JOINT_LEFT_WRIST			JOINT_RIGHT_WRIST			JOINT_SPINE_3			JOINT_SPINE_2			JOINT_SPINE_1			JOINT_PELVIS			JOINT_RIGHT_HIP			JOINT_LEFT_HIP
		X1	Y1	Z1	X2	Y2	Z2	X3	Y3	Z3	X4	Y4	Z4	X5	Y5	Z5	X6	Y6	Z6	X7	Y7	Z7	X8	Y8	Z8	X9	Y9	Z9	X10	Y10	Z10	X11	Y11	Z11	X12	Y12	Z12	X13	Y13	Z13	X14	Y14	Z14	X15	Y15	Z15

1	1749651033.784000	158.659460	6.198302	864.333700	97.705500	0.828460	956.537200	235.682490	10.123432	891.352000	22.914084	-3.753290	993.338760	299.264900	15.761629	869.810300	-32.121440	-267.616150	1040.851700	349.966560	-213.207810	818.540100	nan	nan	nan	-66.951660	-397.352800	995.218340	158.093360	-83.943370	849.620500	152.590110	-162.752790	820.045100	150.462970	-245.317820	808.613400	146.602300	-321.680520	787.865600	64.305660	-339.625120	823.849860	238.299740	-323.416770	797.722800
2	1749651034.051000	157.994940	8.204311	868.874550	98.241730	5.878195	961.786800	236.638860	14.859185	894.969170	19.915010	-1.499355	1006.152400	300.025760	17.776564	872.461860	-33.050970	-267.967730	1030.724800	350.101400	-213.886920	818.564530	nan	nan	nan	-72.710360	-404.497200	1002.361900	158.249170	-79.564870	850.457970	152.983590	-163.172470	822.159700	150.574970	-245.500430	809.215370	151.082600	-321.833730	788.240970	65.195200	-337.853670	822.527170	239.667580	-323.950200	796.123500
3	1749651034.084000	158.610550	8.886382	868.717130	98.101650	5.859002	960.353400	236.730300	14.855385	895.334360	18.908770	-1.114517	1010.232700	301.691440	18.776998	870.759960	-32.847095	-266.044560	1031.110200	351.326670	-216.207060	818.955060	nan	nan	nan	-71.514530	-401.157050	1000.044300	158.240440	-79.569910	850.409700	153.104500	-163.310350	822.840870	150.597080	-245.544820	809.337740	146.820650	-321.613460	787.655600	64.244450	-336.626700	822.943900	237.679420	-323.128280	797.782500
4	1749651034.118000	158.157910	8.891344	871.785040	98.201685	5.898625	961.333500	236.861400	14.888749	895.796360	18.653512	-1.053393	996.051900	299.968330	18.705383	871.654200	-34.586920	-269.904400	1034.415500	350.576670	-215.317280	818.563000	nan	nan	nan	-71.665000	-401.953500	1001.480000	155.212610	-80.020934	855.630000	153.093200	-163.272900	822.761240	150.595550	-245.523510	809.355140	149.718730	-321.798440	788.208900	66.580060	-338.374700	823.876400	236.022000	-320.715550	793.299700
5	1749651034.152000	159.139990	8.072421	871.162500	97.857830	2.309173	958.012300	236.841400	14.921784	895.747000	19.539317	-1.707405	1001.736300	300.708030	17.598152	869.461600	-33.827156	-269.098670	1030.812000	350.886640	-215.499550	819.058060	nan	nan	nan	-72.512370	-402.886870	1007.129400	156.880680	-79.755350	852.969940	153.060240	-163.209330	822.574850	153.659730	-245.203020	808.373900	150.820200	-321.807830	788.299700	66.569710	-338.404630	823.691600	238.569540	-322.276620	795.462000
6	1749651034.185000	160.037170	7.660598	871.499060	98.061630	3.908932	960.071200	236.278090	11.882424	893.538950	19.562770	-1.789272	998.682600	302.116540	16.834036	868.952400	-33.320446	-267.268240	1031.624900	351.504500	-215.713980	819.090200	nan	nan	nan	-71.840480	-405.853900	1009.108400	157.672970	-79.674510	851.540570	153.081060	-163.275330	822.681500	152.233260	-245.332420	808.674930	151.281980	-321.913360	788.439700	65.984540	-336.776320	823.048700	238.412470	-323.080570	796.569100
7	1749651034.219000	161.058010	6.608173	869.688500	97.850110	2.055436	957.959400	238.715780	10.452822	891.868300	21.586578	-3.136814	997.768700	302.799970	15.922204	868.412000	-32.359727	-264.775720	1025.745300	351.612570	-215.710830	819.213200	nan	nan	nan	-71.759920	-406.783130	1010.205600	157.968100	-82.032410	850.117000	153.105530	-163.230480	822.827640	151.407110	-245.318300	808.908640	151.484120	-321.917180	788.642800	65.643296	-336.053000	820.679070	238.826410	-323.193040	797.249800
8	1749651034.252000	161.029090	6.571948	869.346900	97.715154	0.981018	956.519400	237.612920	9.705186	891.837600	21.212910	-2.804488	997.868200	303.245660	15.567929	868.668440	-31.434360	-261.347120	1028.760900	351.330070	-215.531040	819.364900	nan	nan	nan	-68.539550	-403.154820	1005.527100	158.219640	-81.081820	849.972670	153.127610	-163.277760	822.948340	153.254990	-245.240750	808.520440	151.529650	-321.987800	788.751070	65.944016	-335.979820	820.939800	239.282580	-322.978730	797.823130
9	1749651034.286000	160.460380	6.781593	869.156360	97.608440	0.404611	955.621100	236.830730	9.394094	892.098550	20.656077	-2.485946	1004.294500	302.678590	15.695632	868.410200	-31.066336	-258.980750	1031.732600	351.246240	-216.007050	819.493530	nan	nan	nan	-68.728210	-399.717870	1003.051200	158.335940	-80.410290	850.017960	153.127900	-163.319410	822.920400	152.126850	-245.348720	808.787200	149.126160	-321.877240	788.329240	65.027630	-336.477160	821.492970	238.844860	-323.083640	798.090600
10	1749651034.319000	160.288720	7.116228	869.069460	97.562574	0.204802	955.309570	236.641990	11.795238	893.784760	20.359775	-2.315968	1005.026200	302.611650	16.216815	868.289000	-30.949775	-258.136600	1032.133000	351.027400	-216.218980	819.859400	nan	nan	nan	-66.147104	-396.633150	998.323700	158.365820	-79.934370	850.088360	153.104300	-163.313540	822.759400	151.311730	-245.417860	808.978900	147.532840	-321.783100	788.018600	64.045064	-336.626770	822.324450	239.037690	-324.036360	798.205800
11	1749651034.352000	160.223860	7.189825	869.977900	97.587235	0.294015	955.416560	236.297560	11.145517	893.579840	20.072635	-2.153367	1003.716100	302.466060	16.214132	868.338900	-30.915342	-256.889050	1030.351500	351.350100	-216.696000	819.712040	nan	nan	nan	-65.091446	-397.872000	999.197400	158.368540	-79.573540	850.195200	153.068110	-163.227650	822.566100	150.756630	-245.397480	809.080300	146.550040	-321.654860	787.836130	64.144805	-335.668200	821.796360	238.556860	-323.821900	798.557640
12	1749651034.386000	159.617860	7.397488	870.655540	97.597210	0.330448	955.748140	236.406600	12.992352	894.831000	19.740993	-2.224699	1000.739000	301.336940	16.688064	868.514500	-30.636072	-257.552440	1034.648900	351.514940	-216.092380	820.148470	nan	nan	nan	-63.832210	-396.006850	996.213000	158.347130	-79.485536	850.360700	153.033050	-163.251980	822.350860	150.464160	-245.478240	809.094200	146.085000	-321.620230	787.573160	64.360390	-334.980880	821.674300	237.971630	-323.960240	798.676850
13	1749651034.419000	159.498680	7.450834	869.910000	97.878695	3.014371	959.057600	236.222950	11.809707	894.157700	19.550197	-1.666114	998.858700	301.411120	16.320810	868.372560	-30.676808	-256.973860	1034.669500	351.524700	-216.084540	819.942900	nan	nan	nan	-66.720050	-397.134130	1002.387200	158.331450	-79.464525	850.537700	152.996400	-163.238800	822.153300	150.339720	-245.518030	809.105200	145.933750	-321.571400	787.398800	63.725200	-335.102020	822.580200	238.445980	-323.829100	798.829560
14	1749651034.453000	159.096690	7.799208	870.394800	98.078050	4.921928	961.112200	236.454310	13.422087	895.121930	19.522944	-1.497477	1001.631500	300.686450	16.869456	868.940230	-30.815550	-258.310900	1031.567100	351.311120	-216.467230	819.842160	nan	nan	nan	-67.040734	-399.417340	1004.469600	158.323700	-79.417510	850.708250	152.992250	-163.175660	822.182100	150.327130	-245.478390	809.161200	148.293440	-321.616400	787.732240	64.050880	-335.256810	822.519960	238.988640	-323.640640	798.750160
15	1749651034.486000	159.022670	7.803813	869.939450	98.217950	5.955294	962.034170	236.662280	14.391482	895.693060	19.654855	-1.519278	1001.025800	300.515950	16.903192	868.771430	-31.110182	-261.556950	1031.691600	351.770640	-217.147130	819.676600	nan	nan	nan	-67.423870	-398.980600	1000.658800	158.354220	-79.513170	850.972530	152.997970	-163.225650	822.258000	150.349080	-245.522220	809.144140	147.619920	-321.632270	787.680150	63.967470	-336.832100	823.094100	239.069850	-323.373760	798.496660
16	1749651034.520000	158.697830	8.469746	869.493540	98.272674	6.506741	962.378140	236.800090	15.029550	896.053140	18.927988	-0.954986	1003.072100	300.682630	17.750248	868.765600	-31.865466	-262.389600	1028.281300	351.607440	-216.545760	820.087130	nan	nan	nan	-68.196990	-399.024300	998.719200	158.363340	-79.513310	851.120900	153.017420	-163.193480	822.391750	150.418980	-245.483520	809.193900	147.124530	-321.573850	787.680700	63.927814	-336.803320	823.507100	239.241610	-323.328440	798.557640
17	1749651034.553000	158.904060	8.174181	869.884430	98.281700	6.597802	962.105450	236.916700	15.248060	896.270600	18.514946	-1.174331	1001.697900	301.249180	17.340794	868.447900	-32.020994	-264.778140	1033.433600	351.474580	-216.396120	820.279000	nan	nan	nan	-67.163950	-397.068500	995.600800	158.379970	-79.598700	851.217800	153.032820	-163.247000	822.475000	150.478400	-245.529650	809.219700	149.084330	-321.725500	787.978700	64.550620	-337.345540	823.121370	239.429120	-323.639500	798.384000
18	1749651034.586000	159.054550	7.994249	871.487400	98.269925	6.455228	961.783470	236.994650	15.237436	896.392800	19.155920	-1.586109	998.889860	300.458520	17.317712	868.464950	-33.153508	-268.890440	1034.229200	351.370700	-216.008470	820.612400	nan	nan	nan	-70.626155	-398.672280	1001.232600	158.391550	-79.696460	851.262330	153.050480	-163.326560	822.557100	150.531630	-245.602890	809.259060	150.418310	-321.892650	788.240500	65.108255	-337.262750	822.576760	238.679050	-322.130380	795.112550
19	1749651034.620000	159.249810	7.198647	870.680450	98.055950	3.746301	959.102450	236.714440	12.779683	894.929400	20.922251	-2.184540	981.735300	299.078260	16.294375	868.070070	-33.529390	-269.718600	1037.544800	351.356270	-215.435200	820.990740	nan	nan	nan	-72.283715	-399.152460	998.250700	158.297990	-81.926930	850.591540	153.039020	-163.293990	822.472800	150.562500	-245.592760	809.312000	151.188160	-321.954850	788.449000	65.298670	-337.237780	822.382300	238.458830	-322.521500	796.473800
20	1749651034.654000	159.911080	6.721482	870.356800	97.876650	2.072304	957.287300	236.488210	11.272654	893.963300	22.411430	-3.212929	983.140700	299.333240	16.252622	868.600960	-33.461010	-268.603030	1036.545300	351.403980	-215.747600	820.582100	nan	nan	nan	-72.396730	-400.173400	999.259000	158.213900	-83.221260	850.101900	153.033170	-163.104920	822.448850	150.587920	-245.421500	809.383330	151.567340	-321.844280	788.643540	65.773350	-337.160940	823.168160	238.823620	-323.252380	797.866400
21	1749651034.687000	160.003900	5.964458	868.981240	97.748265	0.883982	956.228000	236.314000	10.193810	893.355000	22.519013	-4.143313	985.986200	300.098930	15.578628	869.270600	-33.647675	-268.826220	1033.487800	351.387020	-215.774250	819.979500	nan	nan	nan	-74.460280	-402.501940	999.765340	158.159940	-84.118540	849.834500	153.023750	-163.161980	822.368700	150.599200	-245.488660	809.357460	149.383830	-321.879450	788.508800	65.232650	-337.115820	823.894600	238.626930	-323.343720	798.828960
22	1749651034.720000	160.352440	6.550148	868.758300	97.644830	0.326306	955.614450	236.535640	12.114748	894.607250	23.065170	-3.404081	988.893400	300.411880	16.095906	868.981360	-33.726020	-269.646020	1034.055000	351.622550	-216.693970	819.632900	nan	nan	nan	-75.356650	-405.171220	1005.936100	158.244330	-82.273970	850.508400	153.013680	-163.156380	822.299500	150.605810	-245.487100	809.318400	147.830530	-321.845800	788.371440	64.708430	-337.237000	823.898700	238.797990	-323.908900	799.663900
23	1749651034.754000	160.480860	6.219566	867.769960	97.584170	0.132114	955.382100	236.366570	11.123016	893.955950	23.188670	-3.933460	990.903740	301.072630	15.912860	869.341970	-33.638220	-269.106570	1032.174000	351.875500	-217.443500	819.396850	nan	nan	nan	-75.850904	-403.678240	1005.092900	158.187150	-83.126426	850.170730	153.003110	-163.167420	822.235300	150.602500	-245.495540	809.257860	146.869420	-321.846040	788.292940	64.226800	-337.319370	823.777100	238.986850	-324.427070	799.836900
24	1749651034.787000	160.849270	6.455123	869.536760	97.568765	0.148192	955.426600	236.247140	10.442659	893.475950	23.079133	-3.511772	989.550230	301.253680	15.988871	868.808270	-33.128230	-267.144000	1034.581200	351.888900	-216.301430	820.096200	nan	nan	nan	-75.117010	-401.853020	1002.538300	158.262700	-81.481960	850.666050	153.008670	-163.205420	822.284300	150.588150	-245.508160	809.187950	146.357950	-321.853220	788.220300	63.252180	-335.876820	820.752560	237.714000	-322.647700	796.196640
25	1749651034.821000	162.108100	6.052673	876.797140	97.568860	0.289828	955.640850	236.161960	10.076180	893.204800	22.975007	-3.947496	991.205800	301.724260	15.477717	869.167500	-33.483017	-267.863570	1032.492600	351.595970	-216.530200	819.884600	nan	nan	nan	-74.030034	-403.567850	1006.611200	158.214420	-82.562860	850.334000	153.026830	-163.225100	822.403200	150.580510	-245.492260	809.136150	146.172930	-321.828780	788.157400	61.094955	-336.636780	821.606460	nan	nan	nan
26	1749651034.854000	161.871090	5.881280	874.143200	97.611740	0.427842	955.832360	236.148850	9.859040	893.088100	22.972420	-3.942132	992.595430	301.976980	15.154585	869.385060	-33.391330	-267.595050	1036.348300	351.493330	-216.471020	819.751260	nan	nan	nan	-72.201310	-401.695900	1001.575400	158.190860	-83.382570	850.093300	153.034660	-163.271380	822.461600	150.550290	-245.507270	809.072700	146.143360	-321.853760	788.145600	62.293667	-336.414430	821.920200	237.806660	-322.416100	796.966000
27	1749651034.888000	161.743420	5.684346	873.556550	97.623880	0.528395	955.973860	236.126600	9.780899	893.063300	23.107663	-4.229814	999.089300	301.841940	14.999106	869.562000	-32.733668	-264.294680	1022.774500	351.718700	-216.370690	819.614950	nan	nan	nan	-70.674300	-402.491420	1004.824000	158.168480	-83.922670	849.973600	153.043510	-163.316730	822.496950	150.545460	-245.532510	809.040840	146.238310	-321.879270	788.125160	60.821560	-335.844400	818.143400	238.055210	-323.216470	797.858240
28	1749651034.921000	161.091340	5.707756	870.875100	97.629346	0.691429	956.148800	236.104240	9.877920	893.068700	23.362495	-4.291058	1006.752600	301.487860	15.114307	870.369100	-31.937398	-262.648940	1019.861200	351.787100	-216.008370	819.481130	nan	nan	nan	-69.961130	-404.924930	1009.063400	158.158260	-84.138950	849.983900	153.161880	-165.598770	823.204640	150.543780	-245.461080	808.995100	148.649000	-321.851970	788.201200	62.398132	-336.748060	819.506900	238.517950	-323.847470	797.714400
29	1749651034.954000	160.804480	5.829260	869.618300	97.663200	0.860214	956.212800	236.140420	10.012090	893.143830	23.226080	-3.952458	1003.656400	301.391330	15.083745	870.109500	-31.145087	-258.999300	1019.436700	351.902220	-216.900740	819.423100	nan	nan	nan	-68.585440	-402.260420	1007.093400	158.171730	-84.173960	850.047470	153.127330	-164.737580	822.965500	150.520000	-245.367700	808.951900	147.980290	-321.791770	788.287160	63.015215	-337.680700	820.845000	237.701820	-321.696370	794.969700
30	1749651034.988000	161.237120	5.915135	871.120800	97.675400	0.837743	956.246260	236.158460	10.014996	893.202000	23.426615	-3.760025	988.905550	301.388300	15.107408	869.842950	-31.191288	-261.474820	1025.102900	352.065950	-217.617780	819.369100	nan	nan	nan	-68.824260	-404.581070	1009.943100	158.177500	-84.242314	850.082700	153.102890	-164.134770	822.776900	150.516300	-245.417310	808.930600	147.429670	-321.862300	788.327800	60.465448	-336.616520	817.058700	237.467380	-322.385340	796.512600
31	1749651035.021000	160.807220	6.391972	869.674300	97.678140	0.925243	956.298770	236.161650	10.139167	893.223940	23.284612	-3.209680	988.846240	301.491950	15.620008	871.019360	-30.508406	-258.486360	1027.892500	351.689760	-217.760820	819.279430	nan	nan	nan	-68.478490	-402.304950	1006.773800	158.272340	-81.901990	850.719630	153.091420	-163.599300	822.706700	150.518150	-245.351140	808.934500	147.040400	-321.828420	788.416400	61.872046	-336.388740	819.601500	237.527970	-322.478400	797.700800
32	1749651035.055000	164.395020	6.056577	889.686600	97.684470	0.890359	956.422500	236.152680	10.148168	893.194700	23.326695	-3.095671	991.629060	301.808690	14.997706	870.605900	-30.393593	-256.790040	1024.989800	351.560650	-218.136190	818.551660	nan	nan	nan	-65.899970	-399.427000	1000.947400	158.263950	-82.648000	850.615260	153.086000	-163.330820	822.670340	150.526970	-245.386600	808.951440	146.792780	-321.870570	788.425000	nan	nan	nan	nan	nan	nan
33	1749651035.088000	163.425640	6.140962	881.852570	97.704400	0.828147	956.575600	236.164810	10.115012	893.212100	23.881895	-3.272489	992.400050	301.424700	15.251726	870.105300	-29.875645	-255.918680	1028.164700	351.846200	-218.285560	818.914200	nan	nan	nan	-63.859940	-397.039230	997.106500	158.258470	-83.295040	850.513100	154.339000	-165.455700	831.134300	150.534840	-245.453770	809.002340	146.651390	-321.932260	788.428200	62.371463	-337.578600	822.262940	237.176580	-323.034640	798.590400
34	1749651035.122000	166.356640	5.835414	897.493540	97.725350	0.813127	956.652300	236.188800	10.110900	893.251000	22.711674	-2.515241	987.641900	301.262560	15.864730	871.380500	-29.992314	-258.905650	1030.913700	351.913930	-217.956930	819.071350	nan	nan	nan	-64.185634	-401.194800	1008.252300	158.355100	-81.499410	851.083800	154.021840	-164.763440	828.289200	150.539670	-245.484550	809.070500	146.584330	-321.952460	788.442100	nan	nan	nan	nan	nan	nan
35	1749651035.155000	168.070180	3.147125	905.375840	100.307710	-1.773640	954.932630	236.197080	10.111034	893.313700	25.843225	-5.364776	982.825200	301.015760	14.356077	870.523330	-30.120792	-260.598120	1033.579600	351.908680	-217.514540	819.368100	nan	nan	nan	-63.348606	-398.180040	1003.147000	158.332140	-82.543430	850.893300	153.762490	-166.459930	826.088850	150.543150	-245.490300	809.047460	146.590490	-321.970820	788.461450	nan	nan	nan	nan	nan	nan
36	1749651035.188000	169.109930	1.405761	909.396950	101.987530	-3.492624	953.637700	235.787260	7.680938	891.467200	27.883533	-7.049486	979.013500	300.616150	13.057291	870.384400	-30.609198	-263.179500	1034.561300	351.912680	-217.303440	819.726940	nan	nan	nan	-64.927500	-396.908800	999.760570	158.334060	-83.360136	850.869000	153.519440	-167.517570	824.404800	150.544570	-245.514260	809.049800	146.610480	-321.994660	788.463950	nan	nan	nan	nan	nan	nan
37	1749651035.222000	169.642940	0.583500	910.939630	102.937070	-4.315093	953.053530	235.896540	8.639380	892.138400	28.784592	-7.893383	978.827240	300.611080	12.791067	869.682400	-30.708850	-265.550580	1037.068000	352.307530	-217.194530	819.734400	nan	nan	nan	-64.435480	-395.608870	996.538100	158.336850	-83.758265	850.913500	153.314440	-167.911660	823.277300	150.411000	-247.331200	808.151300	146.649510	-321.868150	788.500000	nan	nan	nan	nan	nan	nan
38	1749651035.255000	170.229350	2.537206	913.515400	103.443585	-2.274707	953.730460	236.015840	9.237260	892.703200	27.162861	-5.449727	973.736500	300.672470	13.712868	869.263200	-31.711582	-268.031030	1040.198700	352.257130	-217.349000	819.646600	nan	nan	nan	-66.165800	-396.271140	998.052950	158.356150	-84.148735	851.005700	153.183220	-165.976640	822.779700	150.451660	-246.746420	808.528240	146.664660	-321.937020	788.454950	nan	nan	nan	nan	nan	nan
39	1749651035.289000	168.258470	6.613389	917.182740	101.129210	1.944825	957.456900	236.099660	9.791032	893.101200	23.653780	-3.066018	989.535030	300.705670	15.073046	869.222000	-31.529010	-265.700280	1037.548500	351.852480	-216.243340	819.974400	nan	nan	nan	-67.700500	-396.998640	1003.462200	158.499850	-82.023140	851.950940	153.091340	-164.443000	822.526630	150.499170	-246.148910	808.873300	146.689530	-321.881180	788.445400	nan	nan	nan	nan	nan	nan
40	1749651035.322000	169.078190	6.833926	916.239900	101.948980	2.171025	956.863050	236.174550	10.139406	893.318600	24.230696	-1.841947	993.098600	301.015970	15.934095	870.820050	-28.246509	-265.702900	1032.602400	351.381330	-216.274510	819.497050	nan	nan	nan	-70.481874	-399.290140	1002.337900	156.243070	-85.177790	853.028000	148.660760	-172.567190	824.333370	143.001510	-255.171840	804.386600	137.418670	-335.004750	784.803100	nan	nan	nan	nan	nan	nan
41	1749651035.356000	169.588690	6.715655	914.868200	102.514650	2.032653	956.325050	236.218210	10.320350	893.497600	24.599282	-1.172602	995.011150	301.122640	15.817940	871.612700	-30.170817	-266.190050	1033.193300	351.145770	-216.387180	819.242200	nan	nan	nan	-72.221040	-400.647520	999.441200	157.115740	-82.762150	853.187400	150.139820	-168.969020	823.652150	145.510080	-251.641900	806.157000	140.526580	-330.461900	786.183300	nan	nan	nan	nan	nan	nan
42	1749651035.389000	169.897140	6.335035	913.714350	102.883960	1.630723	955.889100	236.264270	10.256678	893.589500	25.158140	-1.211688	995.977040	300.671820	15.625477	871.953700	-31.136777	-266.174170	1033.192300	351.471600	-217.375340	818.179200	nan	nan	nan	-74.361460	-399.983320	997.863700	157.727380	-83.389320	852.451560	151.401450	-166.290100	823.161840	147.652730	-248.870090	807.594660	143.177780	-326.767800	787.357330	nan	nan	nan	nan	nan	nan
43	1749651035.423000	167.706830	6.058350	914.813900	100.613505	3.904015	958.659230	236.294220	10.239840	893.622040	23.187656	-1.049414	995.789800	300.655250	15.967220	872.451250	-31.702760	-266.931240	1032.049300	351.860020	-217.779700	818.307760	nan	nan	nan	-73.654550	-401.054800	996.810700	158.287420	-81.571630	852.746370	152.322800	-164.411930	822.872760	149.225700	-246.886220	808.620200	145.100240	-324.077670	788.152500	nan	nan	nan	nan	nan	nan
44	1749651035.456000	168.525130	5.843863	913.629700	101.531500	2.801031	957.397100	236.289960	10.232255	893.594150	24.294147	-1.571372	993.480900	300.766170	15.773103	872.469000	-32.252014	-267.325000	1032.888300	351.553600	-216.666240	818.652630	nan	nan	nan	-74.183550	-402.666930	996.155440	158.655540	-80.356690	853.047900	152.938960	-163.304180	822.883600	150.248080	-245.661620	809.208400	146.345360	-322.381260	788.590100	nan	nan	nan	nan	nan	nan
45	1749651035.490000	169.129790	5.531490	912.691100	99.559590	1.738369	957.184500	236.299860	10.059088	893.646000	24.357595	-2.562612	993.878500	300.835100	15.509740	871.189700	-32.558676	-268.273000	1032.929000	351.958780	-217.286050	818.893600	nan	nan	nan	-74.289230	-404.046740	997.353550	158.707080	-82.034350	852.256900	153.297130	-162.940260	823.040660	150.798810	-245.170560	809.368670	147.020560	-321.620760	788.699000	nan	nan	nan	nan	nan	nan
46	1749651035.523000	169.529870	5.580127	912.135400	100.943300	1.258612	956.214800	236.296180	10.178849	893.625200	24.822855	-2.138823	988.748970	301.188170	15.692055	870.693300	-33.251904	-268.874650	1032.516800	352.255580	-216.842640	819.111200	nan	nan	nan	-75.011990	-406.129180	1003.704800	158.860700	-80.852570	852.882200	153.440640	-162.659030	823.119400	151.036720	-244.838830	809.491340	147.289980	-321.135220	788.710830	nan	nan	nan	nan	nan	nan
47	1749651035.557000	169.757430	5.538613	911.917400	101.975800	0.876188	955.606900	236.271230	10.170177	893.542100	24.708075	-2.457544	990.950200	301.448970	15.383348	870.336500	-33.014216	-268.367500	1033.840200	352.712900	-217.977050	818.572900	nan	nan	nan	-73.132190	-402.685400	998.934450	158.785050	-82.373610	852.386600	153.433260	-162.677850	822.968100	151.085360	-244.875400	809.530140	147.328140	-321.110040	788.654860	nan	nan	nan	nan	nan	nan
48	1749651035.590000	169.856000	5.507141	911.858260	102.649495	0.663236	955.297100	236.282110	10.145768	893.617150	24.824128	-2.907395	996.663870	301.886440	15.114203	869.745730	-32.885580	-267.282370	1037.057800	352.673770	-217.640850	818.959240	nan	nan	nan	-71.027570	-399.307370	998.797400	158.465600	-85.611300	850.576640	151.446450	-169.869140	825.467500	147.903890	-252.179680	804.049900	143.029120	-330.214200	790.052800	nan	nan	nan	nan	nan	nan
49	1749651035.623000	169.883880	5.601242	911.887200	103.036605	0.692636	955.180470	236.297300	10.227770	893.666900	24.467096	-3.201306	996.680560	302.179160	14.865220	869.699840	-32.694478	-266.408150	1036.089700	352.588400	-217.992350	818.591060	nan	nan	nan	-69.496570	-397.169170	998.484730	158.430650	-85.428740	850.775000	152.039350	-167.555840	824.484900	148.798210	-249.773140	806.046840	144.320340	-327.284870	789.511560	nan	nan	nan	nan	nan	nan
50	1749651035.657000	169.860800	5.599141	911.992900	100.515520	0.681937	955.912650	236.308440	10.216400	893.760440	24.285665	-3.557652	1000.350500	301.982050	15.182510	869.924200	-31.607162	-265.144940	1037.612000	352.536320	-218.894510	818.338700	nan	nan	nan	-67.639440	-396.076400	996.178500	158.393350	-85.130550	850.937070	152.538270	-165.704920	823.738000	149.554550	-247.816260	807.595600	145.413620	-324.945800	789.112200	nan	nan	nan	nan	nan	nan
51	1749651035.690000	166.015460	6.220639	890.228150	98.801695	0.795409	956.419200	236.332640	10.267809	893.782400	23.846878	-3.292501	997.903000	301.913500	15.607402	870.331100	-31.075062	-262.690780	1033.650800	352.264880	-217.798380	818.786100	nan	nan	nan	-67.774616	-400.327180	1006.780100	158.378140	-84.721570	851.064860	154.717890	-166.646700	833.171670	150.085720	-246.363770	808.603100	146.159870	-323.205650	788.833260	63.715340	-338.228200	824.413400	237.940600	-321.953650	794.776740
52	1749651035.757000	167.149190	5.870059	899.958500	97.428140	0.751436	956.841900	236.272810	10.164470	893.528400	23.191620	-3.337622	996.596630	301.620780	15.792847	869.938800	-30.494610	-261.174050	1037.661200	351.874020	-217.465790	819.220000	nan	nan	nan	-63.548500	-396.366240	1000.085800	158.352090	-84.403870	851.106300	154.362230	-164.749180	828.083200	150.562260	-245.329990	809.273500	146.784950	-321.859840	788.480200	nan	nan	nan	nan	nan	nan
53	1749651035.857000	162.973720	7.207364	879.862900	97.342886	0.808746	956.903760	236.211060	10.140151	893.335760	22.897340	-2.450526	992.521200	301.708340	16.711101	870.496600	-30.630736	-262.042200	1032.850600	351.987780	-217.858610	819.240300	nan	nan	nan	-63.583000	-404.770260	1019.027700	158.592200	-80.419846	852.498600	153.425960	-163.325860	823.183600	150.659860	-245.180010	809.163100	146.851500	-321.544170	788.276200	58.014996	-334.016380	813.028340	237.470870	-322.263100	794.717400
54	1749651035.891000	166.312100	6.348729	897.347500	97.575106	0.821143	956.872700	236.178140	10.140091	893.255830	22.582180	-4.017889	986.026200	301.648140	15.808910	869.994400	-30.844110	-262.346480	1035.474800	352.622180	-219.049420	818.752500	nan	nan	nan	-66.090055	-399.531130	1001.124000	158.510670	-82.301330	851.892350	153.034360	-165.809150	821.918850	150.599500	-245.329020	809.018600	146.756590	-321.695700	788.239700	nan	nan	nan	nan	nan	nan
55	1749651035.925000	163.150890	6.744579	881.515700	97.696360	0.830427	956.820500	236.604990	12.861222	895.050350	22.286126	-3.965437	987.678800	301.616760	16.612336	870.421650	-31.004524	-263.315700	1036.696400	352.092530	-218.271030	818.978300	nan	nan	nan	-65.611444	-398.267450	996.477370	158.628780	-80.791710	852.534230	152.929680	-164.620280	821.946800	150.564540	-245.409060	808.981500	146.696050	-321.772100	788.222400	61.643567	-336.893980	820.121100	238.114280	-322.260230	794.991970
56	1749651035.958000	160.447870	7.353991	872.545000	97.963350	3.618330	959.273600	236.865830	14.452919	896.131750	21.035518	-2.815679	993.793850	301.135540	16.896784	870.948100	-31.705238	-264.025700	1036.047000	352.161560	-218.132170	819.071230	nan	nan	nan	-67.311480	-396.684770	996.057870	158.669280	-79.915464	852.756860	152.924100	-163.852750	822.255970	150.558160	-245.433720	809.008540	146.676660	-321.782950	788.197600	63.358750	-337.717920	823.262160	238.371520	-321.902800	794.769000
57	1749651035.991000	159.942140	6.771624	867.998400	97.939490	2.622291	958.354060	236.680240	12.727097	895.074370	21.406928	-3.405601	991.167900	301.622630	16.359419	870.343200	-32.035550	-265.100960	1035.356400	351.480800	-217.922340	819.267870	nan	nan	nan	-68.643406	-397.029500	996.073370	158.569280	-81.810510	852.024200	152.959150	-163.415180	822.591300	150.540600	-245.458300	809.042700	146.643420	-321.807030	788.207700	64.479360	-337.551950	821.818350	238.133860	-322.045200	795.514940
58	1749651036.025000	163.502870	6.164074	886.718750	100.617150	1.829624	956.792700	236.516830	11.459798	894.319360	23.096638	-2.909884	990.487640	301.974300	16.037226	870.071530	-32.021012	-265.212540	1034.082400	351.146850	-217.818290	819.393160	nan	nan	nan	-70.086600	-402.948770	1011.933200	158.578950	-80.816220	852.124800	152.993200	-163.175930	822.740100	152.740880	-245.188100	807.972500	148.959340	-321.819870	788.188340	nan	nan	nan	nan	nan	nan
59	1749651036.058000	162.543650	6.540895	878.468400	99.612206	1.163542	956.465000	236.415060	10.504350	893.844660	23.503415	-2.600804	978.872100	301.852020	16.126410	870.136600	-32.705600	-266.174140	1033.352100	351.129800	-218.775240	819.087450	nan	nan	nan	-71.564436	-405.844780	1017.691900	158.609320	-80.257520	852.307440	153.038140	-163.193100	822.876600	151.965810	-245.379200	808.409330	148.142830	-321.920700	788.185660	64.773490	-338.133400	824.092700	237.335340	-322.533850	796.738300
60	1749651036.092000	161.742550	6.420001	873.713800	98.764144	0.941619	956.401200	236.323090	10.149032	893.621740	23.455903	-3.203884	984.085800	301.572140	16.100585	869.657340	-32.989345	-266.674640	1033.823000	351.465140	-218.779800	818.992500	nan	nan	nan	-72.583240	-404.944660	1009.211300	158.506600	-81.991030	851.731100	153.095160	-163.095970	823.079400	151.350930	-245.341090	808.800200	147.511750	-321.816180	788.256050	64.880125	-337.488600	821.592450	237.043000	-322.277840	797.308500
61	1749651036.125000	160.663110	7.087469	871.542700	98.399736	3.273979	958.952370	236.652480	12.274951	895.157700	21.871679	-2.572522	991.682700	301.552620	16.612738	869.637370	-33.348020	-267.645120	1034.607000	351.454020	-220.307710	818.841600	nan	nan	nan	-72.895170	-402.234020	1005.215300	158.543680	-81.083180	852.009800	153.126140	-163.195400	823.113500	150.911320	-245.467360	809.084400	147.027580	-321.846960	788.184340	65.357420	-337.506350	822.552440	237.271060	-322.646860	797.486100
62	1749651036.159000	160.589720	6.567314	869.417970	97.986050	2.345517	958.275200	236.566380	11.400789	894.704100	22.290440	-3.540024	990.639600	301.755550	16.286180	869.830970	-33.595383	-267.688400	1033.916100	351.465730	-221.592340	818.768260	nan	nan	nan	-73.634730	-402.862070	1005.726300	158.455150	-82.589924	851.452700	153.137500	-163.227630	823.070400	152.772020	-245.211000	808.096200	148.997490	-321.858940	788.247350	65.935010	-337.351860	823.449500	238.984420	-323.188780	797.662730
63	1749651036.192000	160.397290	7.102892	868.103800	97.735226	1.698121	957.707460	236.812030	13.256416	895.812200	23.162937	-2.872929	995.878100	301.116850	16.692579	869.631650	-33.268213	-265.931500	1026.498300	350.927900	-218.875150	819.634000	nan	nan	nan	-74.102750	-401.368950	1002.491700	158.499360	-81.286736	851.832330	153.163240	-163.209970	823.162500	151.909890	-245.258120	808.681700	150.353200	-321.796360	788.315400	65.462075	-337.612660	821.189170	239.125620	-323.062060	797.788800
64	1749651036.225000	160.582660	7.070020	868.176500	100.296990	1.136675	956.495600	236.668410	11.940986	895.027200	23.983574	-2.946496	996.032100	301.053460	16.670004	870.369850	-33.080846	-265.972820	1028.339700	350.833700	-219.058070	819.322800	nan	nan	nan	-75.057380	-401.023400	1001.490200	158.562110	-80.464430	852.224650	153.169360	-163.305240	823.147800	151.260640	-245.439140	809.178230	148.842220	-321.780500	788.130800	64.956210	-337.823330	820.554500	238.870190	-323.178300	797.931700
65	1749651036.259000	160.605250	6.729826	868.698360	99.349480	0.809818	956.467330	236.568080	10.978967	894.544060	23.368250	-3.326639	995.427200	301.305830	16.303540	869.575740	-32.681840	-265.474620	1032.281300	350.546660	-217.020880	820.016260	nan	nan	nan	-72.530560	-399.059000	999.761700	158.482690	-82.158640	851.670270	153.163920	-163.349750	823.088770	150.839920	-245.570000	809.543850	147.690300	-321.737700	787.960650	64.586885	-337.594800	820.354200	238.632050	-323.220430	797.366740
66	1749651036.292000	159.661430	6.944492	867.993350	98.591454	0.622213	956.534500	236.499070	10.333911	894.282500	21.641513	-3.010675	999.333300	301.266670	16.475216	869.755700	-32.791525	-265.847860	1032.598100	350.601700	-217.041540	819.953440	nan	nan	nan	-70.598070	-397.674680	998.598900	158.551050	-81.144130	852.123900	153.162790	-163.404510	823.075950	150.610660	-245.682540	809.744950	146.935750	-321.731200	787.848500	64.406160	-338.236030	821.603240	238.201830	-323.113380	797.169700
67	1749651036.326000	159.764700	6.727591	868.167160	98.053426	0.600755	956.585000	236.455050	10.020375	894.188500	21.672580	-3.521368	991.126950	301.151660	16.521410	869.411350	-32.614764	-266.316300	1033.037000	350.715900	-215.967030	820.019500	nan	nan	nan	-69.435455	-399.782660	1000.100900	158.467140	-82.587360	851.579800	153.145630	-163.373430	822.977070	150.514050	-245.706800	809.846160	148.797510	-321.749150	787.965240	64.476350	-337.562320	820.206460	239.214060	-323.034300	797.507460
68	1749651036.359000	160.422730	6.473884	869.183400	97.723350	0.693142	956.575000	236.425150	9.952679	894.148500	22.247287	-3.843665	991.748870	301.712500	16.302109	869.707760	-32.465804	-267.268150	1034.570300	351.077200	-215.698750	819.936630	nan	nan	nan	-68.054750	-397.809450	997.629700	158.410420	-83.510816	851.258460	153.133360	-163.295450	822.926900	150.504810	-245.667820	809.906540	150.131180	-321.732340	788.123700	64.431235	-337.287250	819.305500	238.347560	-321.551300	794.884700
69	1749651036.393000	164.304610	6.002501	889.860800	97.561150	0.770465	956.615450	236.424680	9.966761	894.215050	23.066066	-3.741533	983.446060	301.499630	16.422808	871.599730	-31.647477	-267.249140	1037.706900	350.960200	-216.077980	819.655600	nan	nan	nan	-66.094050	-396.128420	994.735400	158.367710	-84.054400	851.050140	153.126670	-163.255470	822.908040	150.527760	-245.632170	809.857250	148.669300	-321.676340	788.077530	nan	nan	nan	nan	nan	nan
70	1749651036.426000	163.204420	5.733326	882.005800	97.527460	0.688568	956.658070	236.434410	9.872332	894.210160	23.029367	-3.795669	982.248660	301.511620	15.565202	871.273640	-30.697118	-261.295740	1034.117700	351.414230	-217.223880	819.075400	nan	nan	nan	-65.523280	-398.695680	1005.491700	158.345580	-84.444800	850.921870	153.113070	-163.357870	822.832800	150.554180	-245.733860	809.767250	147.570610	-321.781600	788.028960	63.370720	-337.534580	825.675400	237.130150	-322.694120	797.465000
71	1749651036.460000	162.564740	5.728766	876.416600	97.529100	0.729650	956.645900	236.436620	9.942576	894.260470	23.130430	-3.815860	986.429630	301.875560	15.231907	870.821540	-30.800512	-261.173640	1034.315700	351.342300	-217.345200	819.360600	nan	nan	nan	-65.701390	-399.307430	1002.081600	158.333020	-84.513724	850.917700	153.121110	-163.359640	822.899760	150.603770	-245.727900	809.774500	146.886690	-321.786640	788.055300	63.236150	-339.075450	823.423500	236.821560	-319.984670	792.414600
72	1749651036.493000	162.450300	4.382640	869.638700	100.165100	-1.730710	955.005470	236.453280	10.076493	894.320960	25.566906	-6.028548	979.640500	301.575700	14.337704	870.442900	-30.744117	-260.707560	1035.457300	351.467900	-217.270030	819.634600	nan	nan	nan	-64.122595	-397.296970	999.756400	158.330860	-84.409880	850.941900	153.108120	-165.492400	822.809800	150.640090	-245.659800	809.797300	144.239990	-321.733620	788.118960	58.855813	-340.372260	824.960230	235.814500	-321.647260	794.605700
73	1749651036.527000	162.334760	3.335357	866.756900	101.925450	-3.451705	953.983200	236.479860	10.076359	894.380150	27.623782	-7.964626	981.496600	301.208380	13.820604	871.711730	-31.086750	-262.460320	1037.956100	351.701100	-216.506390	819.626800	nan	nan	nan	-65.309286	-398.612800	1001.431600	158.331810	-84.368885	850.933550	153.096380	-166.983320	822.739100	150.673550	-245.720740	809.872570	144.839750	-321.782830	788.087960	61.028313	-339.127840	823.844400	235.708000	-321.513740	795.657500
74	1749651036.560000	164.886430	1.714081	884.913400	102.912866	-4.411265	953.383800	236.480500	10.112688	894.402700	28.582422	-8.783370	974.851670	300.984470	13.231248	871.776940	-31.332552	-263.937920	1040.798700	351.613820	-216.523100	819.376770	nan	nan	nan	-65.159170	-396.412730	995.242500	158.326700	-84.278350	850.922600	153.082430	-167.799680	822.664700	150.711500	-245.748000	809.972800	145.472970	-321.791900	788.076940	nan	nan	nan	nan	nan	nan
75	1749651036.594000	164.187500	1.777008	877.715700	103.356900	-4.781976	953.163740	236.450330	10.190710	894.279900	28.976930	-9.176150	976.032730	300.986830	12.968063	871.618500	-31.044450	-263.925800	1043.490600	351.421300	-216.937750	819.179700	nan	nan	nan	-65.432010	-396.170740	992.500900	158.323100	-84.146015	850.912600	153.063800	-168.098910	822.577240	150.732380	-245.710690	810.025750	145.998480	-321.747030	788.088300	62.350977	-338.999750	823.322300	236.979800	-321.809050	796.485100
76	1749651036.627000	162.739710	3.640652	872.701600	100.889720	-2.308622	954.864260	236.441840	10.214671	894.230400	26.706656	-6.711960	983.120860	301.325860	13.826072	870.774800	-30.799745	-261.321780	1038.783900	351.339900	-216.483600	819.454200	nan	nan	nan	-65.008850	-394.189600	993.331550	158.321200	-84.072255	850.886050	153.069960	-165.965140	822.673500	150.743370	-245.711650	810.070500	146.365940	-321.732280	788.082660	60.779374	-338.984000	823.275700	238.062530	-322.864700	797.617550
77	1749651036.660000	165.464390	4.601702	891.265750	101.771750	-0.627488	955.244100	238.786860	10.106996	893.233500	26.762873	-5.200073	991.043570	302.004340	14.108106	870.156600	-31.212552	-263.026240	1039.703000	351.203000	-216.128160	819.603000	nan	nan	nan	-66.376990	-393.540380	992.643240	158.313920	-84.126934	850.821800	153.085660	-164.534720	822.773000	150.758740	-245.829460	810.135100	148.885010	-321.879830	788.201300	nan	nan	nan	nan	nan	nan
78	1749651036.694000	167.700200	5.320534	904.691500	99.756286	0.508174	956.306930	237.978950	10.113776	893.587500	25.046580	-3.720850	994.508300	302.329630	14.564633	870.059430	-31.239394	-264.917170	1035.761600	351.026150	-215.724260	819.668700	nan	nan	nan	-68.389430	-396.796300	996.359940	158.320620	-84.100430	850.846050	153.094500	-163.569180	822.817740	150.756940	-245.829050	810.153500	150.503860	-321.897270	788.274200	nan	nan	nan	nan	nan	nan
79	1749651036.727000	169.235590	5.677134	912.440400	98.406880	1.079172	956.971470	237.305360	10.086030	893.920800	24.250109	-3.001124	995.077700	301.865100	15.183300	870.223700	-31.625215	-265.329700	1035.866700	351.205600	-215.972810	819.525660	nan	nan	nan	-68.240520	-395.563720	995.993700	158.469020	-81.904090	851.785800	153.092350	-163.074820	822.768800	150.747690	-245.843010	810.096700	149.137320	-321.918200	788.288400	nan	nan	nan	nan	nan	nan
80	1749651036.761000	170.181590	5.903110	916.178300	97.634720	1.376703	957.341850	236.816590	10.155693	894.157200	23.795595	-2.594545	994.646200	301.474100	15.283436	869.960200	-31.750686	-265.815000	1037.980200	351.606250	-216.272740	819.442900	nan	nan	nan	-69.051580	-397.483700	997.663500	158.425600	-82.597140	851.454900	153.096570	-162.818670	822.772500	150.743780	-245.771140	810.068300	148.028930	-321.854350	788.308200	nan	nan	nan	nan	nan	nan
81	1749651036.794000	170.698080	5.922198	917.364200	99.962585	1.392335	956.585470	236.525700	10.147288	894.266070	23.977690	-3.016532	995.331500	301.396070	15.240341	869.777700	-32.015190	-266.960800	1036.742700	351.893700	-217.058550	819.339500	nan	nan	nan	-69.611600	-398.349020	996.127600	158.399280	-83.238470	851.203900	153.045740	-164.964840	822.411950	150.715300	-245.741840	809.953100	149.505020	-321.896500	788.393400	nan	nan	nan	nan	nan	nan
82	1749651036.828000	170.860100	5.889192	917.023540	98.964900	1.315042	956.770540	236.356240	10.162666	894.255400	23.674002	-3.123179	995.715440	301.615480	14.403209	869.639930	-32.553025	-267.713500	1035.023800	352.301660	-217.555330	819.273770	nan	nan	nan	-70.986580	-399.335740	997.526350	158.384010	-83.692350	851.093800	153.001680	-166.449310	822.151360	150.697920	-245.701670	809.878300	148.246750	-321.875400	788.384560	nan	nan	nan	nan	nan	nan
83	1749651036.861000	170.769400	5.952165	915.850400	100.928970	1.329794	956.086160	236.290710	10.300353	894.233200	23.817483	-2.736896	990.333300	301.588570	14.532834	869.613700	-32.706916	-268.441100	1035.839000	351.952050	-216.261040	819.376650	nan	nan	nan	-71.504615	-400.127900	997.163200	158.360560	-83.852290	850.971400	153.023300	-165.079710	822.391450	150.685270	-245.556820	809.851000	147.348670	-321.745870	788.394400	nan	nan	nan	nan	nan	nan
84	1749651036.895000	170.522620	5.661219	914.413630	102.237820	0.975236	955.606000	236.269180	10.099992	894.209270	24.063205	-3.087148	991.252500	301.367430	14.614224	869.667600	-32.627065	-268.849850	1032.121800	352.275900	-216.469200	819.270000	nan	nan	nan	-73.629715	-405.825300	1010.545500	158.347100	-84.210224	850.942850	153.040050	-164.303100	822.494030	150.681180	-245.721820	809.734640	146.800940	-321.916000	788.285100	nan	nan	nan	nan	nan	nan
85	1749651036.928000	170.255100	5.535081	913.212400	103.000380	0.808686	955.333950	236.299990	10.043278	894.237760	24.643967	-3.136262	993.573550	301.780880	14.734790	870.328550	-31.996924	-266.360100	1029.190700	352.698950	-217.209180	818.757650	nan	nan	nan	-73.246670	-405.194160	1006.425500	158.358010	-84.340190	851.056800	153.054880	-163.708210	822.583300	150.671870	-245.754510	809.666160	146.509750	-321.955980	788.237400	nan	nan	nan	nan	nan	nan
86	1749651036.961000	170.026210	5.490154	912.374850	103.364980	0.744179	955.235960	236.345750	10.042354	894.234200	25.155319	-3.589556	995.147760	302.127060	14.645994	870.952200	-32.068730	-267.220600	1028.497600	352.648080	-217.665230	818.704800	nan	nan	nan	-73.401384	-403.091730	1004.688900	158.364650	-84.347010	851.099000	153.077540	-163.344530	822.716200	150.656570	-245.734100	809.619200	146.394610	-321.954300	788.249800	nan	nan	nan	nan	nan	nan
87	1749651037.029000	169.749830	5.577952	911.506800	100.229310	4.261628	959.588770	236.405390	10.164186	894.239400	22.545533	-2.020538	996.846800	301.788000	15.788093	871.163500	-31.647830	-263.976700	1032.145700	352.106750	-217.622280	818.823040	nan	nan	nan	-69.507020	-399.893820	1000.428800	158.541440	-81.235900	852.215700	153.079360	-162.993540	822.691600	150.645120	-245.610390	809.632800	146.388260	-321.842550	788.286000	nan	nan	nan	nan	nan	nan
88	1749651037.062000	169.646070	5.608857	911.480700	101.482530	2.780855	957.911200	236.424060	10.200515	894.190500	23.177470	-2.783373	985.566440	301.685450	15.598446	870.972600	-30.960258	-260.919870	1034.178700	351.309450	-216.601790	818.894450	nan	nan	nan	-65.760754	-396.812500	998.573200	158.481430	-82.452480	851.722840	153.086440	-163.045400	822.712840	150.642890	-245.572720	809.615200	146.523920	-321.811650	788.295450	nan	nan	nan	nan	nan	nan
89	1749651037.095000	169.579030	5.647331	911.439100	99.362984	1.867622	957.615140	236.440400	10.243595	894.230000	23.675306	-2.571702	984.525560	301.359980	16.136065	871.091500	-31.144276	-263.767720	1035.495000	351.504330	-216.641490	818.774300	nan	nan	nan	-67.687580	-398.414080	996.838330	158.611970	-80.829285	852.511300	153.088520	-163.072820	822.712300	150.645030	-245.532750	809.601300	149.050180	-321.782740	788.297000	nan	nan	nan	nan	nan	nan
90	1749651037.129000	169.557970	5.648479	911.439660	98.103240	1.266182	957.256500	236.449540	10.242447	894.224700	22.512095	-2.474621	988.998530	301.033680	15.973315	871.334430	-30.834563	-264.322000	1034.147900	351.920900	-217.715950	818.882100	nan	nan	nan	-67.131800	-400.778300	1004.729200	158.516500	-82.199425	851.821800	153.078400	-163.113730	822.647330	150.643830	-245.533660	809.600600	148.209830	-321.785270	788.322200	nan	nan	nan	nan	nan	nan
91	1749651037.162000	169.552530	5.572021	911.469160	100.175200	0.833869	956.296400	236.460040	10.167331	894.280400	24.228692	-2.052754	986.014960	300.801500	15.477821	871.464700	-30.818950	-265.559970	1033.667300	352.001580	-217.613100	819.565300	nan	nan	nan	-67.316525	-402.386960	1009.295200	156.114350	-85.670090	852.423850	148.641360	-172.583600	824.803800	142.764640	-256.966170	803.333900	137.955190	-336.788950	783.227860	nan	nan	nan	nan	nan	nan
92	1749651037.196000	169.561250	5.520552	911.444840	98.974300	0.614658	956.564840	236.471040	10.111347	894.291000	24.271859	-2.569005	984.361700	300.853900	14.740229	870.326160	-31.078843	-265.328320	1031.900800	352.372620	-217.851490	819.493300	nan	nan	nan	-68.046830	-408.428160	1020.721700	156.886400	-85.494690	851.756630	150.217430	-169.441770	824.143300	145.394550	-252.981800	805.560350	140.730300	-331.563260	785.191060	nan	nan	nan	nan	nan	nan
93	1749651037.229000	169.579070	5.592972	911.512550	98.166400	0.637755	956.726730	236.469480	10.180771	894.295200	23.836495	-2.829596	981.575500	301.033050	15.232012	870.234550	-30.901426	-264.305680	1034.067300	353.069370	-217.919110	819.491600	nan	nan	nan	-67.050910	-403.829400	1010.828100	157.519220	-85.074420	851.307600	151.500030	-166.746630	823.577940	147.627160	-249.616200	807.500360	143.183470	-327.199940	786.913100	nan	nan	nan	nan	nan	nan
94	1749651037.263000	165.407150	6.076992	890.588600	97.696744	0.591233	956.844030	236.467660	10.122180	894.283900	23.837540	-2.865747	986.170650	300.177130	15.354186	870.241760	-30.427124	-262.097540	1032.775900	352.608200	-217.674820	819.863860	nan	nan	nan	-65.321065	-401.065100	1006.275300	158.139850	-82.564555	852.077700	152.401250	-164.884240	823.070500	149.252710	-247.343100	808.813000	147.266940	-324.216160	787.935440	63.967340	-338.958620	822.878200	238.384570	-319.210000	792.674540
95	1749651037.296000	166.572970	5.928323	897.810760	100.090070	-1.896426	955.528600	236.451360	10.163933	894.257900	26.576860	-5.468771	987.840830	300.376180	14.230922	869.659300	-30.827781	-261.663730	1033.173100	352.246460	-216.850490	819.902400	nan	nan	nan	-66.547090	-400.372680	1001.383200	158.388170	-82.996210	851.629800	152.921050	-165.804920	822.483900	152.433130	-245.572750	808.342400	149.959920	-322.324280	788.531300	nan	nan	nan	nan	nan	nan
96	1749651037.329000	167.216140	3.323242	901.159100	101.735130	-3.517047	954.539800	236.006770	7.776245	892.314900	28.291965	-7.274538	980.808560	300.469000	13.190910	870.243700	-30.900313	-261.382130	1034.457700	352.002770	-216.156870	819.174770	nan	nan	nan	-65.568720	-398.573700	996.742300	158.532710	-83.413920	851.495560	153.201010	-166.568920	822.264430	152.285530	-244.920130	809.187770	149.233610	-321.355520	788.841300	nan	nan	nan	nan	nan	nan
97	1749651037.363000	167.794050	1.509160	903.726900	102.759720	-4.520759	954.043150	235.709200	6.078541	891.043540	30.177912	-8.538649	993.645670	300.382380	12.159959	869.702500	-30.736616	-262.087760	1029.332300	352.295200	-216.710930	819.027960	nan	nan	nan	-65.771410	-397.156600	993.940530	158.632100	-83.855270	851.653460	153.300570	-167.200150	822.178360	154.036980	-244.501680	808.392300	150.656700	-321.050050	788.764060	nan	nan	nan	nan	nan	nan
98	1749651037.396000	168.204740	0.592977	905.450000	103.214390	-4.859984	953.700400	235.484810	5.242646	890.375260	30.602833	-9.068489	990.247670	300.317730	11.729941	869.977360	-30.869900	-264.087440	1030.056600	351.630900	-216.050450	819.466770	nan	nan	nan	-66.471730	-395.901000	993.334600	158.671660	-84.057300	851.944200	153.285190	-167.469300	822.118460	152.914100	-244.625870	809.090140	151.447730	-320.974170	788.606800	nan	nan	nan	nan	nan	nan
99	1749651037.430000	168.967010	2.598718	909.361540	100.775750	-2.365768	955.164250	235.808180	7.246792	892.056000	27.845899	-6.588340	985.648800	299.792860	13.080463	869.779650	-30.475441	-264.848170	1032.364200	351.479320	-216.993540	819.674730	nan	nan	nan	-64.874380	-395.432600	992.064600	158.681350	-84.203650	852.146500	153.281390	-165.473300	822.507500	151.949470	-244.884790	809.514460	149.530220	-321.169900	788.649560	nan	nan	nan	nan	nan	nan
100	1749651037.463000	169.048500	1.668081	908.872070	101.658314	-3.128543	954.865930	236.103800	8.754164	893.365100	28.670907	-7.257074	986.991100	300.106940	12.968630	869.837940	-30.025044	-261.185440	1022.398800	351.745870	-217.555340	819.311260	nan	nan	nan	-65.182620	-394.952300	992.151500	158.670750	-84.276445	852.256900	153.171380	-166.238980	822.251000	151.251030	-245.168270	809.779470	148.083550	-321.428420	788.677600	nan	nan	nan	nan	nan	nan
101	1749651037.497000	169.488620	3.578633	911.064500	102.362510	-1.053363	955.391700	236.331370	9.820327	894.249740	26.856186	-4.606575	985.264200	299.974700	14.253631	869.971160	-30.086529	-260.898100	1024.443500	352.186830	-217.931460	819.493200	nan	nan	nan	-65.749350	-394.724800	991.786200	158.649220	-84.231840	852.317040	153.145240	-164.628900	822.535500	150.813420	-245.337750	809.913400	147.145420	-321.601700	788.713630	nan	nan	nan	nan	nan	nan
102	1749651037.530000	169.337960	2.350718	909.660640	102.751374	-2.339765	955.040930	236.045700	7.921815	892.788200	28.030418	-6.067544	980.417850	300.330370	13.530925	870.764550	-31.073818	-264.463100	1026.420200	352.046940	-218.108120	818.880500	nan	nan	nan	-69.903210	-397.654530	993.465000	158.639430	-84.275320	852.419900	153.050800	-165.792730	822.206100	150.580350	-245.542900	809.920200	146.623980	-321.823270	788.705300	nan	nan	nan	nan	nan	nan
103	1749651037.563000	169.601780	3.966704	911.132930	103.042010	-0.684381	955.610100	236.296830	9.002462	893.790660	26.567325	-4.455552	984.145640	300.180900	14.462158	871.517000	-31.329720	-265.640500	1025.802700	352.298140	-218.273010	819.306900	nan	nan	nan	-73.280050	-401.224760	1006.057100	158.639220	-84.242340	852.492300	153.055100	-164.486290	822.484500	150.474640	-245.611460	809.854000	146.388290	-321.925340	788.716200	nan	nan	nan	nan	nan	nan
104	1749651037.597000	169.734610	4.954517	911.853850	100.736246	2.878919	959.324400	236.462760	9.646922	894.407450	24.000052	-2.787024	989.779300	300.656320	15.586823	871.320900	-31.578890	-267.386140	1029.009500	352.580070	-218.264360	819.584250	nan	nan	nan	-75.523116	-401.860920	1006.137300	158.788600	-82.099750	853.489200	153.059830	-163.710500	822.624800	150.453060	-245.737170	809.747500	146.338550	-322.085800	788.703300	nan	nan	nan	nan	nan	nan
105	1749651037.630000	169.413800	3.166705	909.806850	101.530686	0.084519	957.375470	236.572400	10.130644	894.805600	26.492390	-5.013362	988.078300	300.821450	14.672264	871.364950	-31.695705	-267.637550	1028.601200	352.517930	-217.865030	820.197900	nan	nan	nan	-75.807930	-406.550650	1008.278300	158.735300	-82.804784	853.103760	152.987200	-165.312380	822.173060	150.488030	-245.715960	809.712600	146.406020	-322.096770	788.749750	nan	nan	nan	nan	nan	nan
106	1749651037.664000	169.532820	4.310429	910.781150	102.252720	0.510901	956.932960	236.608640	10.369316	894.883900	26.099205	-4.566953	993.597870	300.237800	15.211687	871.509200	-31.498242	-267.188280	1027.926700	352.614300	-217.988360	820.762500	nan	nan	nan	-74.464260	-406.358800	1007.937800	158.703540	-83.418260	852.878800	153.008860	-164.344010	822.355700	150.538890	-245.696510	809.689640	146.513180	-322.107200	788.799400	nan	nan	nan	nan	nan	nan
107	1749651037.697000	169.615690	5.111858	911.458500	102.750490	0.788838	956.670100	236.631600	10.462269	894.927700	25.522795	-3.360107	988.454900	299.973130	15.814320	871.299300	-31.122570	-266.385600	1029.657200	352.555270	-217.859950	821.088000	nan	nan	nan	-73.262240	-407.230300	1014.444100	158.815700	-81.632964	853.607650	153.040170	-163.673340	822.560000	150.594040	-245.676370	809.723000	146.618870	-322.099830	788.844100	nan	nan	nan	nan	nan	nan
108	1749651037.731000	169.697580	5.518407	911.909500	103.071176	0.868171	956.566750	236.661170	10.378495	894.933000	25.200753	-3.642753	991.694600	300.124700	15.191957	870.347140	-30.590057	-263.262600	1029.402000	352.597120	-217.140640	820.785700	nan	nan	nan	-72.052320	-408.410370	1023.973600	158.747540	-82.727380	853.057560	153.058590	-163.333640	822.650970	150.623700	-245.723840	809.728740	146.681850	-322.155240	788.857460	nan	nan	nan	nan	nan	nan
109	1749651037.764000	169.748680	5.700707	912.217900	100.552290	0.869200	957.384900	236.641380	10.273680	894.829300	24.236338	-2.938271	986.198500	300.580800	15.526518	870.098050	-30.201200	-263.526470	1036.445100	352.340340	-217.160250	820.589660	nan	nan	nan	-69.812410	-402.888660	1013.653600	158.865930	-81.356116	853.811400	153.064640	-163.173360	822.640960	150.655420	-245.766850	809.758400	146.743550	-322.204140	788.888500	nan	nan	nan	nan	nan	nan
110	1749651037.798000	167.539720	8.352697	914.802970	99.041164	3.567711	960.253800	236.942700	12.738526	896.188100	21.575889	-1.738250	988.132830	300.503520	16.348362	870.925400	-30.780723	-264.920470	1035.239200	352.299540	-216.842500	820.348900	nan	nan	nan	-69.588660	-406.020000	1025.519800	158.969570	-80.330010	854.430000	153.081200	-163.018960	822.725800	150.676640	-245.668800	809.816800	146.785690	-322.116760	788.966950	nan	nan	nan	nan	nan	nan
111	1749651037.831000	168.333720	7.368311	913.970600	100.650510	2.528533	958.949800	236.838530	11.735603	895.672260	22.440778	-2.318531	985.162700	300.710020	15.923887	870.174400	-30.523209	-265.419300	1034.818200	352.227700	-217.121560	820.264100	nan	nan	nan	-68.477330	-403.296800	1015.430300	158.876970	-82.147470	853.744300	153.115480	-163.180260	822.887500	150.695820	-245.790510	809.829200	146.814810	-322.232070	788.947100	nan	nan	nan	nan	nan	nan
112	1749651037.865000	168.998640	6.677106	913.280300	99.213354	1.835197	958.765500	236.764090	11.071563	895.306300	22.851132	-2.836764	980.681700	301.042700	15.608504	871.534650	-30.000001	-262.363500	1034.198800	352.125760	-217.675150	819.507700	nan	nan	nan	-68.212270	-401.651080	1015.506000	158.813070	-83.318256	853.323040	153.139560	-163.188460	823.019300	150.700460	-245.728080	809.856700	146.828000	-322.182120	789.010900	nan	nan	nan	nan	nan	nan
113	1749651037.898000	167.135200	6.204546	914.805650	98.252095	1.360118	958.604160	236.672270	10.644510	895.027300	21.289965	-2.340063	990.521550	301.043660	16.139835	872.377200	-30.205250	-263.794960	1033.444500	352.073400	-218.651920	818.925700	nan	nan	nan	-67.201190	-402.911300	1014.974000	158.916300	-81.803880	854.103740	153.145250	-163.162890	823.020400	150.713940	-245.641770	809.864460	146.856730	-322.105000	789.044600	nan	nan	nan	nan	nan	nan
114	1749651037.931000	168.244620	5.835697	913.788000	100.417666	1.024172	957.673430	236.641380	10.320350	894.866300	22.746198	-2.586618	988.732800	301.476300	15.161678	871.030570	-29.999690	-261.171880	1035.793000	351.599480	-218.156440	819.689500	nan	nan	nan	-67.300740	-399.059770	1008.011600	158.875170	-82.977794	853.780500	153.130440	-163.183850	822.919000	150.700810	-245.623770	809.854500	146.843750	-322.107200	789.093400	nan	nan	nan	nan	nan	nan
115	1749651037.965000	165.574340	6.021649	891.982100	101.953790	0.813082	956.996000	236.602300	10.121569	894.714800	23.730738	-2.974927	992.331740	301.698650	15.334710	870.474800	-29.816918	-259.947360	1034.965600	351.045160	-217.289980	820.257840	nan	nan	nan	-65.454350	-395.496340	1002.703300	158.827740	-83.797190	853.463200	153.092940	-163.198560	822.684170	150.701700	-245.652630	809.902800	146.836000	-322.135570	789.119600	61.711174	-338.567550	824.866650	238.764450	-321.342860	796.835660
116	1749651037.998000	167.023080	5.646333	898.804370	102.888286	0.594109	956.552150	236.587540	9.930387	894.747300	24.154693	-3.776059	993.133960	301.838700	14.583841	869.629740	-30.187247	-260.708030	1035.556700	351.394410	-217.213400	820.445660	nan	nan	nan	-67.779220	-395.617540	999.170300	158.789470	-84.390600	853.270770	153.040530	-163.282590	822.356100	150.709990	-245.775520	809.909050	146.841900	-322.250460	789.089400	nan	nan	nan	nan	nan	nan
117	1749651038.032000	168.202030	5.437255	904.772200	100.715680	0.522539	957.213340	236.588510	9.864390	894.767000	24.448443	-3.953963	995.515050	301.561060	14.304012	869.251000	-29.675012	-258.857730	1027.128100	351.529330	-216.985270	820.736170	nan	nan	nan	-67.213700	-393.970130	1002.415000	158.770840	-84.673890	853.189770	152.990430	-163.299900	822.091160	150.717990	-245.851490	809.981170	146.837670	-322.314980	789.110960	nan	nan	nan	nan	nan	nan
118	1749651038.065000	165.405260	5.245239	886.524100	101.797150	0.734866	956.932700	236.603420	10.078281	894.907700	24.641769	-4.286379	988.071800	301.857320	14.137030	870.206000	-30.040696	-260.126080	1027.824900	351.535350	-216.804090	820.886300	nan	nan	nan	-66.876550	-392.303320	1000.096900	158.751590	-84.565480	853.161450	152.946560	-163.094130	821.899650	150.748700	-245.729710	810.169400	146.859400	-322.181460	789.232500	62.159523	-338.169000	824.930700	239.661680	-323.979380	799.496300
119	1749651038.099000	163.296130	5.121321	875.263800	102.572760	0.764742	956.791940	236.667560	10.105968	895.159800	24.742989	-4.474536	990.716700	301.717520	14.014289	870.079400	-29.802099	-260.683300	1028.044700	352.167900	-218.120300	820.162400	nan	nan	nan	-66.319960	-390.751060	998.064040	158.740580	-84.545830	853.108350	152.927500	-163.086730	821.843600	150.767240	-245.777700	810.288200	146.861450	-322.213950	789.280200	62.716510	-338.379320	824.286600	239.421740	-323.388000	799.035400
120	1749651038.166000	165.895100	5.246654	894.677900	103.194185	0.768781	956.740300	236.731710	10.109454	895.364600	24.945518	-4.420906	995.149000	301.797630	14.019012	870.119700	-29.673524	-262.011350	1025.500500	351.906360	-218.593630	819.683130	nan	nan	nan	-66.774980	-397.910950	1014.037400	158.761550	-84.510540	853.261000	152.905610	-163.105430	821.780560	150.770890	-245.832150	810.277640	146.866010	-322.279750	789.315640	nan	nan	nan	nan	nan	nan
121	1749651038.199000	168.127570	5.481049	907.393000	100.209974	0.852942	957.813300	236.780080	10.199323	895.572960	24.449002	-4.358798	993.906000	302.255750	13.837442	871.313870	-29.314082	-259.493400	1030.896300	351.293600	-217.804270	820.563900	nan	nan	nan	-64.094074	-393.630400	1002.018100	158.784120	-84.363850	853.409300	152.883630	-163.031010	821.648240	150.769220	-245.773240	810.223600	146.880130	-322.239160	789.328800	nan	nan	nan	nan	nan	nan
122	1749651038.232000	166.378750	4.815340	890.045700	101.435260	0.877529	957.559050	239.408500	10.208651	894.876960	26.312102	-4.734859	988.507330	302.585660	13.213530	872.030850	-29.053740	-258.463030	1032.575400	351.004240	-217.237680	821.078660	nan	nan	nan	-64.690130	-391.438200	1001.580400	158.800940	-84.304705	853.461440	152.867000	-163.010050	821.557160	150.761650	-245.767950	810.210760	146.868810	-322.233380	789.312960	63.250160	-337.578770	826.103450	238.136600	-323.298500	799.634040
123	1749651038.266000	168.041120	5.076006	901.757100	102.288246	0.802204	957.450750	238.493160	10.148793	895.369300	25.936650	-4.503399	991.509100	301.957640	13.825238	871.282300	-29.262012	-258.267600	1031.052700	351.616920	-217.454660	821.996750	nan	nan	nan	-65.502500	-391.840580	999.345100	158.806160	-84.346010	853.479440	152.851420	-163.060130	821.451200	150.773800	-245.848280	810.245600	146.872220	-322.288870	789.259000	nan	nan	nan	nan	nan	nan
124	1749651038.299000	166.480600	4.912645	885.624350	102.848240	0.869796	957.326600	240.204770	10.199532	894.767170	27.435925	-4.211158	985.255400	302.437900	13.433769	871.069970	-29.738182	-260.439520	1037.005400	351.527480	-216.635400	822.105050	nan	nan	nan	-65.363980	-391.488600	997.990370	158.820100	-84.281610	853.530600	152.838600	-162.993740	821.395800	150.777090	-245.809210	810.314950	146.858600	-322.226580	789.251800	64.289960	-338.303630	825.898200	238.108220	-320.545600	795.566440
125	1749651038.333000	165.348900	4.936650	876.921100	103.171340	0.861272	957.282540	241.230640	10.183767	894.315660	28.404292	-4.014805	981.039500	302.244280	13.406709	870.829160	-29.752480	-261.980740	1037.335500	351.793100	-216.641870	822.039250	nan	nan	nan	-66.050120	-392.075150	997.064650	158.824680	-84.288040	853.533700	152.844180	-163.007570	821.440500	150.785340	-245.833530	810.375200	146.854560	-322.232720	789.251400	63.939326	-337.690300	824.090600	237.880380	-319.650050	793.855850
126	1749651038.366000	163.058650	5.144402	870.802340	103.318594	0.819549	957.329450	239.367650	10.157824	894.978640	26.961926	-3.937289	985.876140	301.836730	13.814122	871.934000	-29.218663	-260.526840	1034.085500	351.379100	-216.537390	822.076260	nan	nan	nan	-65.147184	-393.204150	999.719140	158.811960	-84.317580	853.465140	152.841910	-163.034380	821.416000	150.802720	-245.882390	810.434460	146.869450	-322.272120	789.275600	63.796630	-337.817070	824.986340	238.398360	-319.202180	793.591000
127	1749651038.400000	162.248700	5.209580	871.961900	100.692170	0.778764	958.189900	238.019330	10.122463	895.478300	25.577866	-4.100978	990.360560	301.392500	14.049694	870.835660	-29.444052	-260.885240	1032.425500	351.844460	-217.658160	822.809600	nan	nan	nan	-65.552640	-394.579830	999.440250	158.783960	-84.343040	853.284360	152.835090	-163.061100	821.368000	150.815040	-245.937100	810.501460	146.870090	-322.309230	789.282860	59.838597	-334.131500	815.788200	238.582450	-320.661700	795.865100
128	1749651038.433000	164.821910	5.367950	890.394750	101.597150	0.765234	957.968530	239.535780	10.102779	894.890670	26.547369	-4.656121	984.273500	301.594970	13.600677	870.520830	-29.030384	-258.135680	1032.678800	351.718040	-218.762950	821.809300	nan	nan	nan	-66.440220	-395.706180	1006.845000	158.754690	-84.343690	853.112000	152.839210	-163.076550	821.396300	150.821360	-245.960470	810.539400	147.008400	-320.499700	790.226760	nan	nan	nan	nan	nan	nan
129	1749651038.467000	167.140630	5.573660	904.182800	102.315456	0.859380	957.749660	238.270820	10.202050	895.510440	25.654592	-4.692316	985.136000	301.805320	13.980299	870.064200	-29.208688	-258.567270	1030.723000	351.343840	-218.657030	821.775300	nan	nan	nan	-67.277450	-400.900070	1019.190500	158.719390	-84.243120	852.944550	152.855160	-163.008240	821.503200	150.835570	-245.893800	810.613630	147.117330	-319.239020	790.830250	nan	nan	nan	nan	nan	nan
130	1749651038.500000	168.865430	5.655199	912.445200	100.176610	0.882074	958.580550	237.435400	10.217234	895.945100	24.759632	-4.646152	985.465700	301.529300	13.832584	870.936600	-29.019386	-258.292850	1031.198500	351.017330	-218.491970	821.671840	nan	nan	nan	-66.251070	-396.475430	1013.145200	158.704410	-84.220320	852.860030	152.861070	-163.000730	821.536700	150.839430	-245.896900	810.673100	147.021310	-320.370400	790.118460	nan	nan	nan	nan	nan	nan
131	1749651038.534000	169.991400	5.681172	916.566200	101.389420	0.876114	958.113850	236.920280	10.213956	896.106960	24.254542	-4.494026	984.620000	301.374640	13.534769	870.443050	-29.095633	-260.380480	1032.908100	351.263700	-217.640790	822.034360	nan	nan	nan	-66.082060	-395.049500	1006.276600	158.680410	-84.214516	852.742550	152.860540	-163.004820	821.516340	150.841860	-245.905670	810.673060	146.951750	-321.272000	789.603400	nan	nan	nan	nan	nan	nan
132	1749651038.567000	167.441790	5.414084	897.714140	102.302164	0.884935	957.737400	236.676140	10.225117	896.177400	24.299746	-4.331946	983.306650	301.480560	13.554528	870.116530	-28.788904	-259.888470	1033.572600	350.852500	-217.558650	822.298500	nan	nan	nan	-64.572220	-392.956550	1003.041500	158.678680	-84.206210	852.768200	152.872490	-163.008910	821.581960	150.846590	-245.903640	810.690340	146.897400	-321.864250	789.284350	63.619070	-337.458430	825.835650	238.107890	-319.972000	793.134450
133	1749651038.600000	166.108710	4.493132	886.256930	102.908800	0.780717	957.584400	236.586030	10.128066	896.084100	25.994578	-4.905090	983.478840	301.441580	12.825578	871.110560	-28.969595	-261.089740	1034.420100	350.564000	-218.010750	821.773000	nan	nan	nan	-63.476090	-391.402960	1000.224700	158.673540	-84.296420	852.747200	152.898640	-165.331870	821.696460	150.842200	-245.983680	810.635000	146.859320	-322.294470	789.103200	57.948854	-332.236770	809.117200	240.543710	-321.967540	798.206200
134	1749651038.634000	163.056450	5.112723	874.119340	100.579865	0.845864	958.429200	236.577820	10.191858	895.932260	24.882942	-4.242510	985.179250	301.254030	13.843358	872.145700	-28.686376	-259.795550	1033.073000	350.430670	-217.089200	821.786300	nan	nan	nan	-63.840650	-391.145320	999.625600	158.674520	-84.238460	852.780300	152.873460	-164.498000	821.549700	150.847270	-245.929930	810.665800	149.170530	-320.413020	789.502300	61.997194	-334.931100	820.684100	241.289470	-322.658960	800.050200
135	1749651038.667000	161.598200	4.784361	867.625200	98.958090	0.815436	958.848900	236.622510	10.168150	895.839700	24.055881	-4.263118	986.193540	301.973550	13.422668	871.570300	-28.631220	-259.168330	1030.335900	350.783560	-217.843340	821.452140	nan	nan	nan	-64.509870	-391.026850	997.926600	158.672100	-84.263030	852.777600	152.850200	-163.865390	821.408000	150.852300	-245.954300	810.667160	148.381680	-321.160850	789.349100	63.074425	-337.504330	827.001300	240.498810	-323.175280	800.544000
136	1749651038.701000	163.917020	2.761796	883.994640	100.597605	-1.816750	957.448840	236.314770	7.683411	894.074100	26.819384	-6.454945	985.960070	301.875050	12.397930	871.395100	-28.527793	-259.870900	1031.888100	350.754100	-218.229710	820.993540	nan	nan	nan	-65.026560	-391.166030	996.983230	158.690440	-84.329010	852.856700	155.206040	-165.674180	821.386600	153.095140	-245.890440	810.169340	150.034760	-319.778620	789.663100	nan	nan	nan	nan	nan	nan
137	1749651038.734000	164.330830	3.242359	881.040160	101.892225	-0.877693	957.244340	236.477570	8.569270	894.675400	28.259076	-6.001294	991.406100	301.661220	12.496710	870.372950	-28.739610	-260.573540	1027.318400	351.076300	-218.918590	821.663300	nan	nan	nan	-65.842620	-392.377080	995.777550	158.707420	-84.277040	852.973160	154.416220	-164.583520	821.508500	152.342660	-245.881830	810.446500	148.778800	-320.773300	789.487960	59.232257	-333.337370	814.336840	241.933380	-323.501700	801.386830
138	1749651038.768000	163.354400	3.372252	873.479200	102.765540	-0.104398	957.144500	236.630770	9.281740	895.140200	28.622868	-5.959675	986.595200	301.431660	12.483627	871.228040	-28.572915	-261.001530	1026.834600	350.890930	-218.857720	821.863500	nan	nan	nan	-67.305630	-398.219600	1008.635600	158.736350	-84.260434	853.092100	153.801230	-166.042370	821.890500	151.694310	-245.897110	810.646900	150.027680	-321.462270	789.137600	60.925942	-335.856140	820.015430	241.825200	-323.234080	800.756800
139	1749651038.801000	163.288190	3.305793	869.315560	103.246816	0.482619	957.137900	238.644060	7.415265	892.572500	28.521314	-5.714521	989.723270	302.358240	11.907309	870.724700	-28.356057	-259.575550	1026.332500	350.902860	-218.602120	821.596600	nan	nan	nan	-67.174570	-399.458560	1016.745800	158.781190	-84.235124	853.369400	155.663700	-166.926700	821.794330	153.496900	-245.777580	810.346800	150.870790	-321.886540	788.971500	62.495235	-336.147800	820.893350	241.981130	-323.585400	800.951660
140	1749651038.835000	162.804410	3.770024	868.733760	103.448550	0.735506	957.138300	240.373390	8.475989	892.895900	27.050473	-5.130127	993.466200	303.086040	12.162328	871.521300	-28.204052	-259.844200	1028.364300	350.882980	-218.598800	821.819500	nan	nan	nan	-65.305740	-395.938580	1010.188100	158.828870	-84.333680	853.654100	154.545740	-165.308310	821.742200	154.710840	-245.809730	810.195300	151.353730	-322.214500	788.892500	63.965780	-336.411980	820.637170	241.427420	-322.365130	798.464240
141	1749651038.868000	162.926240	4.083201	868.535300	103.505960	0.920892	957.281350	239.057510	9.344235	894.296770	27.633330	-4.661053	984.116400	302.861930	12.322545	872.182700	-27.138270	-262.321700	1029.757600	350.775240	-218.082040	822.057660	nan	nan	nan	-65.089755	-396.469380	1005.267900	158.877970	-84.356850	853.909430	153.700190	-164.077340	821.722900	155.405390	-245.785390	810.138900	151.553180	-322.309140	788.857400	64.393760	-336.979750	823.608000	241.388380	-323.076300	799.580160
142	1749651038.902000	163.067090	3.936514	867.857300	103.460680	1.046106	957.361700	240.380610	9.965807	894.371100	28.130062	-4.854366	983.111600	302.984360	12.167499	872.414050	-27.349947	-260.815800	1029.148500	350.894960	-217.800070	822.312500	nan	nan	nan	-64.555970	-395.511500	1001.520500	161.067890	-84.174280	852.234100	155.474040	-163.221670	821.520860	155.731510	-245.736550	810.174000	151.707080	-320.387240	789.613660	65.893896	-337.105400	825.862050	241.591770	-321.975860	798.008500
143	1749651038.935000	162.883480	4.360422	870.237350	103.404480	1.082525	957.501950	238.887820	10.314643	895.379540	26.913846	-4.194319	988.068800	302.909850	12.382492	871.864440	-27.627297	-259.409370	1029.196900	351.258600	-219.024140	822.033900	nan	nan	nan	-63.711950	-392.865480	1000.952500	160.399500	-84.233925	853.327300	154.372860	-162.797660	821.642400	153.577040	-245.872800	810.835360	151.725980	-319.106580	790.100200	65.584560	-337.458500	826.996400	239.819230	-320.681630	795.341250
144	1749651038.969000	162.357030	4.476741	869.564200	103.322010	0.847429	957.610900	237.793340	10.279804	895.999850	25.817525	-4.087403	991.315800	303.028350	12.521416	871.816300	-27.999418	-257.742940	1031.447300	351.415600	-218.788090	822.438060	nan	nan	nan	-62.521614	-389.523000	999.942400	159.867810	-84.505630	854.425500	153.574200	-162.819620	821.717300	152.050470	-246.146470	811.148400	149.544750	-318.766060	790.965140	64.780320	-336.906080	827.208040	238.296290	-320.295130	793.764230
145	1749651039.002000	162.768770	4.676923	871.666550	103.254050	0.882909	957.676350	239.480470	10.381192	895.412740	25.377627	-4.228696	991.346700	303.417000	13.033569	871.435700	-28.297218	-258.548860	1032.949600	351.590400	-218.349900	822.970500	nan	nan	nan	-62.459360	-388.159500	1000.024900	159.529450	-84.527040	855.426400	153.065760	-162.747500	821.770100	151.127030	-246.164620	811.409350	150.125560	-320.184950	790.084660	64.860280	-337.523460	827.423930	237.743820	-319.547120	792.874340
146	1749651039.036000	162.915680	3.664434	868.627000	103.135230	-1.677692	956.745450	240.289090	7.965878	893.149200	27.536407	-6.301194	990.272640	302.989200	12.881100	872.621360	-27.425233	-256.707220	1038.924300	351.069500	-218.504940	822.475430	nan	nan	nan	-61.606860	-386.768820	1000.865100	159.373690	-84.570140	856.295760	152.892230	-165.103390	822.452100	152.898790	-246.064930	811.070200	150.605100	-321.259980	789.503930	63.922994	-337.002160	826.664450	239.483770	-321.162160	796.690170
147	1749651039.069000	162.697820	4.028484	869.710560	103.137985	-0.953600	957.085500	238.796170	8.616254	894.469860	26.853763	-5.518019	993.975900	302.815170	12.907609	872.330550	-27.383478	-257.700500	1036.148200	350.839470	-218.624860	822.815700	nan	nan	nan	-61.994385	-388.327870	999.092000	159.326610	-84.746145	856.840850	152.801160	-164.569320	822.523360	154.219720	-246.131910	810.844200	150.957870	-322.079540	789.167640	64.886644	-337.557440	826.760650	240.723500	-322.503750	798.968600
148	1749651039.102000	162.836160	4.468411	869.300000	103.131960	-0.143170	957.353950	240.121800	9.347931	894.680100	26.498122	-4.508287	988.793900	303.356470	12.925953	872.055650	-27.594592	-259.203820	1034.537400	351.373970	-219.681260	822.533800	nan	nan	nan	-61.841380	-390.348600	1003.859200	159.347700	-84.706770	857.252360	155.099100	-163.883120	822.146530	155.097700	-246.027050	810.801100	151.204840	-322.401550	789.105500	64.694700	-337.509300	824.528600	241.627230	-323.332200	799.952200
149	1749651039.136000	163.095010	4.874364	869.129400	103.145070	0.358686	957.539000	241.080250	9.781957	894.948960	26.115670	-3.762037	990.393460	303.944830	13.073787	870.850270	-27.453918	-257.950720	1032.876400	351.392330	-219.306410	823.529200	nan	nan	nan	-62.370963	-394.427240	1015.417200	159.390050	-84.751940	857.385200	154.401400	-163.578350	822.563000	155.587690	-246.049700	810.846450	151.342150	-322.617300	789.189000	64.146560	-338.134140	824.966430	241.282030	-322.536020	798.229900
150	1749651039.169000	164.404330	5.295560	875.191000	103.164740	0.717685	957.689000	241.656420	10.087609	895.097000	26.343029	-3.185376	990.287600	304.247100	13.345957	870.300530	-27.054675	-257.058380	1033.739200	351.493330	-218.590800	824.112900	nan	nan	nan	-61.220220	-393.177500	1010.999600	159.429250	-84.735440	857.358340	153.840960	-163.372170	822.902560	153.602850	-246.240080	811.735630	149.146120	-322.657170	789.366660	61.095180	-335.733060	818.248450	239.636610	-321.578030	796.177270
151	1749651039.203000	168.826120	5.527824	891.759000	103.174040	0.880226	957.847200	241.964710	10.231823	895.305750	28.160581	-3.860056	994.233550	304.228250	12.754068	870.766900	-26.415324	-253.365300	1020.725600	351.401930	-218.622330	824.271800	nan	nan	nan	-59.781940	-391.119780	1008.441100	162.142860	-84.844900	864.110770	155.694500	-163.177130	822.366540	154.420760	-246.230410	811.583600	150.108640	-320.877850	790.528600	nan	nan	nan	nan	nan	nan
152	1749651039.236000	168.292020	5.432799	889.818670	103.188500	1.042306	957.792340	242.086170	10.362819	895.382900	27.509231	-3.794372	991.187450	304.449600	13.025120	870.916070	-26.656058	-254.867260	1022.324600	351.413340	-218.851750	824.179650	nan	nan	nan	-61.005715	-393.512000	1016.065400	161.374000	-84.792040	861.941500	156.931300	-163.002700	822.056230	155.013750	-246.148740	811.511300	150.722980	-321.449580	790.414000	62.702370	-336.229030	821.881000	240.242120	-321.387350	796.046400
153	1749651039.270000	166.341170	5.357459	882.519300	103.169456	1.015157	957.632600	239.689160	10.349348	896.286800	27.033970	-3.565028	993.483070	303.578260	13.146758	871.315100	-26.978780	-257.391040	1026.298900	351.495120	-218.799170	824.374600	nan	nan	nan	-59.177864	-389.279630	1011.513200	160.707430	-84.831590	860.189260	155.420240	-163.127620	822.722800	155.400930	-246.154930	811.401370	151.203080	-322.057040	790.452100	63.924500	-336.447900	824.839000	240.926670	-322.754500	798.562800
154	1749651039.303000	165.449890	4.659787	875.511100	103.170715	0.981957	957.549450	240.466360	10.309935	895.996030	28.196447	-4.082456	994.000500	303.284620	12.580827	871.091840	-26.291728	-255.838100	1025.997300	352.056560	-219.076870	825.072400	nan	nan	nan	-57.461426	-386.139750	1008.329600	162.074390	-84.529200	855.284040	156.502140	-163.090880	822.295000	155.612040	-246.164530	811.406970	151.510020	-322.532300	790.651140	64.852970	-337.154480	826.703600	242.296160	-323.446450	800.196350
155	1749651039.337000	164.738310	3.039047	871.002140	103.078620	-1.677185	956.567100	240.691330	7.810280	894.044500	29.710850	-6.383866	992.487900	302.481400	11.616185	871.262850	-25.818426	-253.830080	1026.587500	352.193240	-217.606530	825.398860	nan	nan	nan	-59.446390	-384.898040	1015.399200	162.885980	-84.314920	851.953570	157.262430	-165.370520	822.254900	155.714040	-246.221420	811.470600	151.711960	-322.933730	790.965560	65.081950	-337.949930	827.830400	243.100030	-323.987480	801.276100
156	1749651039.370000	164.370180	2.067566	869.811800	103.012140	-3.326088	955.879870	240.820560	6.255850	892.680100	30.520758	-7.832557	986.803500	301.870940	11.102483	871.462350	-26.118435	-255.082370	1029.196100	350.725400	-213.436680	826.377330	nan	nan	nan	-60.998250	-385.490360	1018.072000	161.448080	-84.372260	853.931300	155.510490	-166.972190	823.386900	153.460070	-246.252450	811.920600	151.931730	-321.230100	792.081400	64.918615	-337.279200	828.628900	241.507980	-323.069450	799.463450
157	1749651039.403000	164.327700	1.294240	870.443600	102.955070	-4.460528	955.375000	240.863430	5.188301	891.861400	31.144248	-9.185284	994.225260	301.756050	10.748327	871.888900	-25.879400	-254.250300	1026.155700	348.414660	-209.324960	829.508960	nan	nan	nan	-63.540146	-386.113520	1014.819500	160.409200	-84.628900	855.722500	154.276610	-168.083430	824.101450	151.950960	-246.464310	812.201140	149.799640	-320.293840	792.837600	63.686594	-337.646250	830.829200	239.167110	-321.667970	796.569500
158	1749651039.437000	164.335280	1.103148	870.965400	102.892460	-4.832059	954.782000	240.832280	4.831046	891.329050	30.874403	-9.342656	990.122900	301.239370	10.510132	869.245100	-25.487147	-261.006980	1025.956900	347.870530	-207.502080	834.711100	nan	nan	nan	-63.386336	-390.215580	1018.496300	159.784120	-84.671415	857.180660	153.540880	-168.523860	824.685340	151.089710	-246.498570	812.557000	148.378060	-319.682030	793.454700	61.512537	-338.496030	832.877600	238.385160	-320.747260	796.284500
159	1749651039.470000	164.391070	1.102641	870.118440	102.825190	-4.889980	954.420860	240.715200	4.790738	890.923000	30.818560	-9.191975	988.283160	301.020120	10.351807	867.022000	-26.078027	-259.596350	1027.688500	349.532870	-208.069040	839.239660	nan	nan	nan	-63.294016	-395.131600	1015.619500	159.489880	-84.722870	858.245000	153.173400	-168.632240	824.926140	150.761890	-246.599570	813.044400	147.431690	-321.212900	792.700650	58.952425	-339.994500	835.476000	237.054690	-320.002730	793.901800
160	1749651039.504000	164.480060	1.054466	868.008800	102.764420	-4.741624	953.796600	240.596440	4.917741	890.564440	30.285802	-8.365020	984.975340	301.470100	9.506509	864.586000	-25.972188	-266.767700	1027.628900	353.910420	-212.115630	842.787440	nan	nan	nan	-63.540960	-400.962600	1013.409100	159.450280	-84.757864	859.061660	153.067110	-168.563340	825.114370	150.476630	-248.464050	811.877800	147.031140	-322.513460	792.756800	56.726550	-341.438620	837.073900	239.736400	-323.471460	797.264900
161	1749651039.537000	163.463860	2.372771	867.716250	102.809350	-2.027988	954.383550	238.089890	5.059034	891.055700	29.037228	-5.532607	980.513330	300.805720	9.648830	865.924360	-27.176265	-267.160600	1027.917600	358.056200	-216.892300	842.656430	nan	nan	nan	-68.765596	-407.241760	1019.134200	159.549370	-84.839836	859.676900	153.110830	-168.472990	825.240700	150.777610	-248.135000	813.482700	149.306680	-323.614120	793.429600	56.605674	-343.264970	837.109450	243.877170	-325.104060	799.437200
162	1749651039.571000	163.099650	3.680468	868.095200	102.801660	-0.257298	954.340900	239.100440	7.529706	891.843500	27.476802	-3.114894	984.782300	301.742820	10.107100	867.256160	-28.101055	-265.364350	1028.130200	364.689320	-225.394010	836.360400	nan	nan	nan	-70.857630	-407.242720	1005.449000	159.702760	-84.979280	860.098800	153.243420	-168.458360	825.455960	150.833680	-249.647930	812.875000	146.662710	-324.906530	795.591600	53.988345	-344.618500	838.086900	242.844490	-326.551080	798.743960
163	1749651039.604000	162.554470	4.609600	871.396360	102.765970	0.875860	953.913700	237.597350	9.284630	893.314540	25.332302	-1.419723	979.107200	301.613800	10.449037	868.131760	-28.509809	-261.372750	1032.750500	366.552440	-218.699400	831.846500	324.631600	-279.777700	685.995940	-72.337635	-407.300920	996.329300	159.885330	-85.003290	860.543550	151.303920	-168.657390	827.462500	148.610440	-250.537800	812.623140	142.725200	-325.898400	797.847330	54.242823	-344.967340	837.634440	235.056330	-326.631900	795.778500
164	1749651039.637000	164.645520	4.533738	882.328100	102.672130	1.339361	952.909100	238.659220	7.811427	891.700800	25.734527	-0.646770	979.027800	302.352130	9.524852	869.658000	-28.997780	-259.214400	1032.393100	366.079750	-214.046180	811.622800	308.698740	-255.923840	657.605300	-76.666065	-408.366140	1005.408300	160.031230	-85.102335	860.796900	150.052490	-168.879000	828.712760	147.839350	-250.045240	816.903530	140.321270	-326.687500	799.514300	54.224227	-340.403560	826.074960	229.635270	-325.493570	794.175900
165	1749651039.671000	166.095960	3.418371	883.347400	102.579870	1.513347	951.944530	239.403320	6.694838	890.248500	26.530044	-0.896484	978.892400	305.616080	7.598475	875.613900	-29.542763	-259.229120	1032.340800	365.044300	-219.613760	775.433200	260.027470	-210.954430	573.384900	-78.213240	-402.636170	1009.593700	160.157490	-85.117020	861.064700	149.417390	-169.010240	829.633200	147.010940	-250.919760	816.298000	139.077720	-327.034950	800.317800	54.549135	-341.004370	831.960100	nan	nan	nan
166	1749651039.704000	166.132800	2.929360	884.973000	102.505215	1.458377	950.998800	239.775210	5.886659	888.792930	25.143895	-1.100734	983.196400	304.554400	6.751656	869.523900	-29.438940	-258.362620	1029.056500	359.577900	-221.814960	735.435000	202.395330	-169.412820	479.534980	-79.791380	-403.405400	1017.716400	159.656630	-91.703710	857.413200	148.669560	-181.648180	826.662960	148.203390	-272.580150	829.655300	136.178170	-340.027150	785.933400	55.262360	-342.593250	835.405500	nan	nan	nan
167	1749651039.738000	168.848290	3.550857	898.200750	102.362140	1.421124	949.858700	239.696820	5.527735	887.020100	25.939584	-1.711384	978.775100	303.738500	8.411914	866.266670	-28.941330	-260.065170	1034.335500	341.462820	-212.510820	694.408830	160.265830	-143.391190	415.678900	-79.201385	-398.055370	999.408300	159.231770	-95.922260	854.869250	151.952940	-192.250420	840.580100	149.630600	-287.811520	836.105760	133.245750	-345.191630	753.935340	55.309236	-334.761650	810.333200	nan	nan	nan
168	1749651039.771000	170.119420	4.707351	902.936500	102.205550	1.296639	948.292140	239.516820	7.693395	885.751100	26.401266	-2.164856	982.823300	300.827680	10.827333	856.189670	-27.851580	-259.135600	1027.163300	322.779360	-198.117210	654.053200	136.532930	-126.708020	392.034530	-77.182830	-394.159380	988.875400	158.870370	-98.240525	852.979500	151.945440	-197.843100	838.748400	147.836480	-295.466480	828.583300	136.803900	-371.305050	783.943900	53.712720	-329.417230	801.485500	nan	nan	nan
169	1749651039.805000	171.275300	5.245790	899.425270	101.999910	1.028091	946.451800	238.518920	9.051785	881.608840	27.539704	-2.886951	984.811540	297.164470	13.971493	846.188250	nan	nan	nan	296.886980	-176.787350	617.577000	116.496980	-116.873264	377.879650	nan	nan	nan	160.144610	-103.368446	846.204500	153.339620	-205.472370	827.472030	149.298640	-306.524930	814.918700	143.348410	-393.588700	777.499850	nan	nan	nan	nan	nan	nan
170	1749651039.838000	169.478300	10.364696	897.741560	101.823540	3.380716	944.923900	235.588950	14.603689	880.613570	27.434476	-3.007680	985.955700	292.359300	20.799622	840.594770	-29.285140	-262.105640	1010.833400	267.110700	-150.062370	583.322800	104.021480	-110.590406	373.679900	nan	nan	nan	161.072430	-103.995490	842.945000	152.124450	-207.203330	800.731400	150.089430	-308.440500	786.114300	147.561460	-401.034680	760.424140	nan	nan	nan	nan	nan	nan
171	1749651039.872000	167.739120	16.055763	894.210040	101.564280	7.504240	942.501500	233.561960	22.884070	879.834100	28.837856	-2.132505	984.077700	286.198740	29.650763	834.122200	-23.263270	-269.625070	1010.132400	244.081440	-128.949480	563.654400	87.684840	-102.455360	355.884600	nan	nan	nan	162.031080	-97.284170	844.321850	156.805630	-195.033580	788.266900	151.707600	-289.359630	740.397630	153.109760	-391.873120	739.119600	nan	nan	nan	nan	nan	nan
172	1749651039.905000	165.700930	19.255534	886.574100	101.096645	9.960696	937.783100	231.422680	27.745679	875.194670	30.400703	-0.846177	982.963440	280.693700	35.061255	825.682040	-18.581463	-256.340620	1007.339100	222.112000	-110.705620	546.671750	71.689800	-96.084535	334.482670	nan	nan	nan	162.954060	-83.645130	848.101400	160.195220	-175.165410	801.622750	141.444240	-236.728340	674.520300	154.120060	-348.701800	714.583800	nan	nan	nan	nan	nan	nan
173	1749651039.939000	164.770770	22.688910	887.951430	100.589090	13.920680	932.767700	227.402700	32.626867	871.048030	31.299590	2.128437	983.257530	276.356070	39.287567	818.163750	-11.946559	-250.270720	1002.749700	204.391790	-99.232890	531.889860	58.477640	-92.861490	321.967600	-60.453800	-253.745320	797.069600	163.297940	-74.265930	849.679470	159.408030	-160.680890	811.055400	121.838980	-187.402640	582.745200	144.329640	-298.623030	668.599500	67.173390	-321.503100	813.714900	221.984970	-277.831200	691.132800
174	1749651039.972000	162.919830	24.768934	885.504250	100.093090	16.118690	928.306300	223.863810	34.890085	863.840100	30.748874	4.243284	976.335940	271.545830	41.511120	808.384900	-12.167046	-251.957650	1005.537900	190.966370	-91.735980	519.560800	49.328405	-90.723130	313.642400	nan	nan	nan	160.639870	-66.603966	848.504700	153.362350	-148.025330	793.300450	100.159370	-147.339060	489.990800	124.741845	-248.867650	596.754900	64.523890	-324.034930	816.414300	214.301030	-279.085070	697.064200
175	1749651040.006000	159.592140	25.569186	877.538740	97.357200	16.974479	928.491830	220.908840	35.277024	855.471500	29.327790	5.480826	984.747200	267.024370	42.601973	798.537550	-12.665991	-248.839690	987.273000	177.445980	-88.025875	506.340100	41.700750	-87.490620	299.614730	nan	nan	nan	158.616210	-62.770285	846.463000	153.592630	-144.192030	804.108300	84.852760	-119.808450	418.111560	106.830650	-206.363440	518.989900	nan	nan	nan	nan	nan	nan
176	1749651040.039000	156.837880	26.297882	869.923500	95.461030	17.134055	927.431050	218.243390	34.733057	845.887800	27.331743	7.235765	981.043930	266.034800	42.880744	800.655200	-16.470019	-258.857430	973.251460	166.688170	-86.814540	489.979600	37.851732	-86.458420	293.372780	nan	nan	nan	156.960760	-63.470290	842.492800	153.187870	-146.000490	813.491100	71.794756	-101.629480	362.192930	90.564266	-174.557270	445.927440	64.720430	-333.249420	826.079370	nan	nan	nan
177	1749651040.072000	154.258160	26.686177	863.242000	94.124995	16.883940	924.049500	214.577150	36.224365	841.688160	25.495640	8.237064	976.547660	263.459320	42.773098	796.585200	-19.345166	-271.447240	978.342530	160.339160	-84.564775	479.392350	36.819440	-86.574170	292.522850	nan	nan	nan	153.157030	-66.948390	837.212500	149.740920	-154.308500	811.486360	60.842626	-92.855304	317.922320	74.556700	-155.816690	382.091250	63.066885	-332.634180	818.133400	nan	nan	nan
178	1749651040.106000	151.824090	26.375010	856.462200	93.233090	16.416937	919.081700	211.388230	34.458116	834.761100	24.602873	8.461848	979.423100	258.427500	41.750430	784.658970	-20.045433	-266.333220	975.199460	157.557980	-80.785710	468.915250	37.224602	-86.841050	292.899280	nan	nan	nan	150.862960	-65.424874	834.487700	148.209720	-154.321270	814.744350	53.620405	-83.898410	288.751300	64.026950	-137.228710	340.076270	62.214330	-319.810300	786.539140	nan	nan	nan
179	1749651040.139000	150.348050	26.458830	855.392750	92.321366	18.318266	910.569300	203.553360	33.525944	804.743700	23.312960	9.015739	974.019650	262.502880	42.342840	804.946200	-21.069754	-256.941200	965.093400	157.685250	-77.981520	462.383180	39.303690	-87.072310	297.656360	nan	nan	nan	149.333120	-64.442530	831.160070	143.127190	-148.936520	785.542400	49.927770	-79.658700	274.612960	58.602195	-126.142740	314.600050	62.630930	-320.048570	790.708100	208.590820	-285.218830	695.618500
180	1749651040.173000	148.540700	26.604101	851.843660	86.358620	17.825171	856.717940	204.555260	34.424870	812.834500	21.629266	8.907095	968.052000	260.371830	42.590022	799.197400	-21.950973	-251.422700	947.383340	160.199960	-79.274240	464.068600	41.151516	-86.852040	297.883630	nan	nan	nan	148.410320	-63.892630	827.636840	143.986960	-144.773220	771.722700	49.167230	-76.213720	264.865220	57.614237	-117.872780	296.773700	63.284680	-322.577830	795.397300	nan	nan	nan
181	1749651040.206000	147.210420	27.244717	846.404900	82.238704	17.654985	834.920600	203.522040	35.176173	819.932000	19.887963	8.936763	962.617160	258.223600	43.507830	792.862650	-23.310170	-246.393890	932.672900	161.718900	-79.166370	460.897680	42.953014	-85.811550	297.552200	nan	nan	nan	147.822440	-63.481650	824.307600	146.373230	-144.673440	783.082000	48.721550	-73.579890	256.894230	55.757176	-111.128960	281.341280	nan	nan	nan	nan	nan	nan
182	1749651040.240000	146.372290	27.483374	842.015740	77.007710	16.115040	791.990760	205.170880	35.475954	822.588440	18.189436	7.618293	956.665400	259.755220	44.039770	795.932650	-22.925650	-248.039360	924.792100	166.890550	-77.270284	465.002420	44.859506	-83.832120	299.083770	nan	nan	nan	147.440120	-63.325770	821.274400	143.092990	-141.617300	762.067700	49.661610	-75.485215	261.538800	55.474266	-108.874395	276.262070	nan	nan	nan	nan	nan	nan
183	1749651040.273000	145.931070	27.455420	838.836850	76.636970	15.808940	794.376000	206.323100	35.481960	822.839900	18.327303	7.403448	950.693500	255.691170	42.972310	778.428300	-22.428857	-245.144900	925.512500	165.239780	-75.828010	455.170070	47.641650	-82.407460	302.989500	nan	nan	nan	147.228720	-63.335930	818.916560	139.223710	-138.314900	739.213400	49.152220	-76.503320	262.662830	53.660322	-108.481300	273.078100	nan	nan	nan	nan	nan	nan
184	1749651040.307000	145.699500	27.308002	836.555660	75.468150	16.245216	789.186800	203.928170	35.515950	813.171860	17.947756	8.370221	948.285940	258.782000	43.652280	791.266700	-24.760328	-251.133260	911.006100	165.009100	-72.678500	449.672640	49.886033	-80.838230	306.276300	nan	nan	nan	147.145330	-63.419975	817.459170	132.387800	-132.279100	699.778440	50.741030	-79.210310	270.031300	55.667873	-113.882530	284.914260	nan	nan	nan	nan	nan	nan
185	1749651040.340000	145.574520	27.327820	834.924300	77.272780	17.345250	818.061300	203.568500	35.602227	818.331840	17.503645	9.649888	949.302140	262.565580	44.780627	805.885850	-25.711610	-248.539840	906.724930	167.889360	-71.917290	454.361860	50.624963	-80.279680	306.232480	nan	nan	nan	144.700740	-63.279720	816.087660	138.001950	-140.071800	755.312700	51.616620	-81.067520	277.671750	54.835350	-115.688205	289.681970	nan	nan	nan	nan	nan	nan
186	1749651040.373000	145.401270	27.102381	833.061640	79.916280	18.193841	846.639340	203.167500	35.395443	820.531850	17.572600	10.169700	949.661600	258.713330	43.937534	790.320700	-26.660163	-246.063050	895.957500	169.078570	-73.784240	456.248460	49.063325	-81.224190	304.267080	nan	nan	nan	145.445170	-63.373170	815.301900	135.501560	-138.422830	744.067670	53.403200	-84.986730	289.195330	56.739543	-121.212410	301.503200	nan	nan	nan	nan	nan	nan
187	1749651040.407000	143.230230	27.114093	834.026750	77.175125	18.420368	815.125200	202.856540	35.328610	820.899100	17.054811	11.218324	951.341150	256.990250	43.963313	785.402240	-26.607264	-244.231430	895.565450	172.055170	-75.827410	460.621180	48.396654	-82.120160	301.840930	nan	nan	nan	143.506210	-67.569554	813.172760	131.416480	-146.039200	740.679400	53.259756	-92.927350	298.317820	56.189780	-133.059410	312.659860	nan	nan	nan	nan	nan	nan
188	1749651040.440000	140.904600	27.203292	821.765960	80.170830	18.901378	845.109640	202.624530	35.215630	820.416300	16.183348	11.435077	947.773340	256.621180	43.859944	785.337570	-27.484823	-245.030600	901.771700	175.979990	-78.703284	466.033070	50.069110	-85.479530	305.675100	nan	nan	nan	144.534950	-66.010706	811.596200	135.001470	-145.211580	749.356500	97.605504	-170.181450	561.197640	59.828904	-133.008670	316.684930	nan	nan	nan	nan	nan	nan
189	1749651040.474000	142.143150	26.993573	822.938440	82.447470	19.155785	864.222900	202.216570	32.873960	818.229440	15.330399	12.111187	941.397250	255.042000	39.898783	778.005960	-27.038610	-257.030700	919.337400	180.957350	-79.944150	472.585900	51.588967	-90.585000	308.643040	nan	nan	nan	142.897780	-71.173880	809.789800	130.946500	-150.113520	733.812150	121.065810	-227.020280	708.055200	57.361840	-140.496790	315.552200	nan	nan	nan	nan	nan	nan
190	1749651040.507000	140.987000	24.574950	825.443740	81.815480	16.908810	880.417200	201.884030	31.228140	816.138150	13.834272	9.154782	943.927600	253.307850	36.617026	769.797600	-25.219753	-267.996130	928.694070	185.903040	-84.422260	476.848540	54.670196	-95.996365	308.601440	nan	nan	nan	141.435410	-76.540920	806.091250	133.248090	-161.505790	756.359000	129.819080	-247.607900	746.451400	56.619227	-144.510760	315.029380	nan	nan	nan	nan	nan	nan
191	1749651040.541000	140.051830	22.842050	829.335000	81.188130	15.431270	887.084700	201.483350	30.310735	814.070760	12.515176	8.056283	933.363560	246.997450	34.028932	755.185000	nan	nan	nan	188.431320	-85.860840	481.552120	58.897175	-104.386630	313.722520	-22.584995	-84.818000	244.742330	138.318600	-75.377370	804.567040	132.217680	-161.171290	762.813000	133.589680	-253.193320	765.355940	53.189090	-136.810000	302.114750	51.157730	-326.675800	798.477600	nan	nan	nan
192	1749651040.607000	140.815400	21.615520	831.213400	80.369495	17.427012	885.312860	199.905740	26.766450	806.841140	11.444432	11.170104	934.561430	242.744620	29.118240	739.148260	-41.468196	-246.315600	951.346040	192.636490	-98.391530	490.257470	65.407660	-116.886560	314.095260	-145.088210	-282.812700	875.705840	135.700180	-73.455274	803.409900	131.658180	-161.688970	778.868200	133.239820	-252.440480	768.427600	48.309475	-125.671390	285.132940	37.709907	-325.650450	806.967000	nan	nan	nan
193	1749651040.641000	140.242710	24.456635	829.921960	77.412000	19.351602	856.557300	199.673130	30.676470	806.118550	10.211569	13.868093	939.726800	243.935150	32.640160	746.114600	-59.861977	-233.319570	956.145600	190.769670	-104.232960	493.959600	70.411610	-122.478140	318.999980	-142.925040	-248.621050	785.388400	135.525300	-67.075750	804.765340	134.753990	-151.465060	785.534200	137.056260	-240.275770	788.820740	48.898254	-119.171870	286.081460	36.018997	-325.947880	813.802840	nan	nan	nan
194	1749651040.674000	139.417740	23.258954	830.430570	74.592320	17.961950	826.339200	196.750520	28.150037	804.525850	10.560378	13.694182	940.692660	243.204550	31.017676	751.896700	-77.571630	-217.487900	939.764140	188.352730	-112.435040	493.380700	75.499140	-128.308500	326.972480	-144.004700	-210.744860	702.807960	135.448320	-63.650206	804.639340	136.615800	-145.906050	788.399040	138.246370	-232.305080	786.644340	52.581593	-120.256410	300.260200	37.162770	-322.517570	818.456400	212.286830	-274.196920	685.885000
195	1749651040.708000	138.101250	24.490133	830.958500	73.837700	18.525645	845.473500	197.769430	28.925210	805.286350	6.161849	15.260577	938.970860	244.037080	32.066150	751.399000	-93.474520	-195.777210	890.485170	188.600060	-117.534470	498.183880	77.825660	-131.402630	331.443400	-154.705550	-182.040510	668.593800	135.511560	-61.841168	804.313300	137.580770	-142.877730	788.576200	138.670130	-227.718900	779.499530	104.830580	-232.849970	606.020700	39.765716	-324.145640	814.403600	212.171390	-271.450900	684.383600
196	1749651040.741000	137.176510	24.016842	830.175100	73.312070	19.321800	859.194500	198.028010	27.792439	803.794440	3.490328	14.835268	935.398800	246.500920	31.825423	757.428650	-106.079450	-177.096250	846.419400	188.308760	-119.363210	499.783870	77.009240	-132.982580	333.196340	-166.885690	-161.262320	634.395060	135.462880	-62.758310	803.233740	137.851120	-143.065740	786.833300	138.948110	-225.714190	772.587800	129.004250	-282.006440	724.025400	41.285202	-326.948820	810.283500	214.618970	-271.153030	684.735300
197	1749651040.775000	137.242560	21.670863	825.865400	73.060060	19.139513	864.234450	199.760150	24.163708	798.726260	1.460212	14.472306	929.158750	249.153700	27.919770	755.548700	-118.010700	-161.558150	827.197300	189.759660	-117.777325	497.882960	76.681250	-135.587130	337.899950	-178.234440	-142.469470	587.196900	135.463330	-64.311610	802.053630	137.644070	-146.264330	783.839900	139.276240	-227.734270	770.529030	138.020400	-303.091600	767.527900	41.275600	-330.685800	807.284060	217.003820	-275.325570	687.597500
198	1749651040.808000	135.640140	22.657096	823.735400	70.870730	19.050956	870.750550	199.675860	26.308298	800.750260	-1.583042	14.891088	922.525200	250.517550	29.539421	758.872870	-130.476790	-145.353240	816.137000	189.009140	-117.813870	500.182900	77.030150	-135.339990	339.023170	-185.732380	-129.671400	542.088300	135.452700	-63.321560	800.991000	135.326420	-144.718650	783.525650	135.948080	-225.018930	763.742600	142.015230	-314.642850	792.005300	38.479432	-329.250750	807.575460	216.585800	-277.138800	693.812130
199	1749651040.842000	133.829100	25.264725	823.285400	67.127090	21.551117	874.762500	199.416610	28.214768	801.979800	-5.735514	17.807170	915.074300	254.087200	32.244176	769.424700	-138.944940	-129.999860	799.872000	188.923570	-116.672770	502.544500	77.371090	-134.903430	339.204300	-195.075540	-122.419775	502.371670	132.934990	-62.397220	798.909800	133.576300	-143.385530	782.406800	133.321120	-223.406580	759.171660	141.435240	-317.603230	788.803000	36.992244	-327.404320	803.067150	214.654920	-277.210350	692.643500
200	1749651040.875000	130.805850	27.986154	817.056600	64.663280	23.580447	872.689800	197.069360	32.154470	803.717140	-9.839791	19.849360	899.244070	255.095900	35.886988	772.990200	-143.666150	-115.915830	773.499800	189.019840	-116.618880	503.043230	76.517425	-135.003120	338.874880	-203.411390	-117.829960	475.348650	130.934280	-59.124194	795.303500	132.222180	-141.877800	779.860800	131.263800	-221.599460	757.699250	135.434730	-306.521240	757.557450	32.632153	-324.380100	804.451400	nan	nan	nan
201	1749651040.909000	129.218520	28.746322	810.697700	63.107830	26.032240	866.007030	197.375500	33.748000	802.603840	-11.673413	21.535397	891.688050	256.707760	36.228478	775.623740	-144.613300	-107.617650	759.886150	190.499400	-117.174160	504.535800	75.005170	-135.710340	338.450160	-209.116620	-118.405096	459.228160	129.364340	-57.745040	790.449700	131.063520	-141.427400	775.464360	128.331570	-218.705920	742.236550	135.118540	-308.640540	756.865900	33.041290	-326.273860	805.706000	214.631510	-279.183750	692.923550
202	1749651040.942000	127.906960	29.163063	802.482900	62.137710	27.531669	856.289800	197.260680	34.669593	799.650100	-12.998319	22.646248	880.507650	257.692300	36.295637	773.773100	-147.845690	-104.458064	750.450300	192.033990	-118.643810	502.810360	75.838774	-136.269660	340.570960	-210.089900	-117.994025	442.288670	128.032520	-56.632460	784.283800	130.008770	-142.637600	769.877250	127.666460	-218.649770	738.184000	132.912200	-304.481150	740.711100	33.821360	-328.221560	805.255300	215.271170	-280.582370	691.895500
203	1749651040.976000	126.823440	30.506820	795.511250	61.298970	28.655931	842.124700	196.558480	35.488920	794.554200	-13.843290	24.105236	874.603600	257.955200	37.845433	770.861270	-148.117360	-106.414430	737.502160	194.986370	-117.099550	505.669100	74.458286	-137.325260	341.600720	-207.181250	-119.246410	446.221500	127.064110	-55.396260	778.927270	129.073900	-142.505810	764.258740	127.572850	-218.264640	736.884300	132.259890	-301.745360	730.373000	34.865063	-326.897530	800.182200	215.537010	-281.585870	691.550250
